{"type":"FeatureCollection","fuente":"Registraduría Nacional del Estado Civil (cartografía del sitio de preconteo 2023)","features":[{"type":"Feature","properties":{"tipo":"departamento","dep":"29"},"geometry":{"type":"Polygon","coordinates":[[[-74.84,5.2814],[-74.821,5.2808],[-74.8135,5.2807],[-74.7974,5.2783],[-74.7835,5.2766],[-74.7657,5.273],[-74.7628,5.2667],[-74.7593,5.2574],[-74.7582,5.2395],[-74.757,5.2193],[-74.7581,5.2077],[-74.7593,5.1881],[-74.7564,5.1771],[-74.7454,5.1626],[-74.7431,5.158],[-74.7425,5.1499],[-74.75,5.1332],[-74.7523,5.1251],[-74.746,5.1066],[-74.746,5.0973],[-74.7483,5.0812],[-74.7511,5.0656],[-74.7569,5.0448],[-74.7598,5.0356],[-74.7586,5.0315],[-74.7621,5.0148],[-74.7638,5.0073],[-74.76576,4.99797],[-74.7644,4.994],[-74.7528,4.9836],[-74.7459,4.9783],[-74.7413,4.9778],[-74.7401,4.9708],[-74.7401,4.9673],[-74.7447,4.9651],[-74.7488,4.9622],[-74.7534,4.9599],[-74.7626,4.9576],[-74.7713,4.9548],[-74.777,4.9484],[-74.7747,4.9432],[-74.7689,4.938],[-74.7649,4.9322],[-74.7626,4.9287],[-74.7603,4.927],[-74.7591,4.9241],[-74.7603,4.9189],[-74.7672,4.9132],[-74.7701,4.9022],[-74.7655,4.8941],[-74.7626,4.8814],[-74.7637,4.8727],[-74.777,4.8693],[-74.7822,4.8664],[-74.7798,4.852],[-74.7816,4.8468],[-74.7862,4.8341],[-74.7885,4.8243],[-74.7815,4.8133],[-74.781,4.7942],[-74.7833,4.7682],[-74.789,4.7637],[-74.7988,4.7562],[-74.8063,4.751],[-74.8092,4.7412],[-74.8259,4.7286],[-74.8414,4.7205],[-74.8501,4.716],[-74.8478,4.7108],[-74.8409,4.7003],[-74.838,4.6882],[-74.8385,4.6859],[-74.8385,4.6743],[-74.8397,4.6662],[-74.8328,4.6552],[-74.8264,4.6466],[-74.8258,4.6344],[-74.835,4.6189],[-74.8397,4.6137],[-74.8454,4.6027],[-74.8454,4.5993],[-74.8385,4.5911],[-74.8333,4.579],[-74.8385,4.5709],[-74.8454,4.564],[-74.8454,4.5577],[-74.8436,4.5409],[-74.8408,4.5259],[-74.8315,4.5155],[-74.8246,4.4975],[-74.8246,4.4917],[-74.8286,4.4767],[-74.8344,4.4687],[-74.8361,4.4589],[-74.8355,4.4542],[-74.8367,4.449],[-74.83974,4.44467],[-74.8419,4.445],[-74.8522,4.4341],[-74.8626,4.4209],[-74.8701,4.4064],[-74.87202,4.39783],[-74.8741,4.3886],[-74.8845,4.3695],[-74.8908,4.3488],[-74.8954,4.3367],[-74.8966,4.3263],[-74.9006,4.3136],[-74.9052,4.3095],[-74.9104,4.2974],[-74.9133,4.2969],[-74.9179,4.2836],[-74.919,4.2761],[-74.9184,4.2663],[-74.9161,4.2588],[-74.9121,4.2541],[-74.908,4.2524],[-74.90176,4.25427],[-74.889,4.2581],[-74.8798,4.2598],[-74.8683,4.2661],[-74.8521,4.2712],[-74.8412,4.2729],[-74.8285,4.2775],[-74.8251,4.2769],[-74.8227,4.2722],[-74.8187,4.2659],[-74.8175,4.2601],[-74.8158,4.2549],[-74.8089,4.2485],[-74.8072,4.245],[-74.8031,4.245],[-74.7956,4.2444],[-74.7853,4.2432],[-74.7806,4.2362],[-74.7789,4.2293],[-74.7754,4.2247],[-74.7703,4.2247],[-74.7582,4.2258],[-74.7553,4.2275],[-74.7489,4.2257],[-74.7385,4.2072],[-74.7212,4.1973],[-74.7103,4.1967],[-74.6965,4.1983],[-74.6809,4.1989],[-74.6705,4.2075],[-74.663,4.2132],[-74.6492,4.2224],[-74.6406,4.2299],[-74.6336,4.2397],[-74.6296,4.2449],[-74.6256,4.2477],[-74.6198,4.25],[-74.6164,4.2506],[-74.6108,4.25287],[-74.60857,4.25247],[-74.6008,4.2511],[-74.5939,4.2511],[-74.5898,4.2522],[-74.5858,4.2504],[-74.5818,4.2493],[-74.5702,4.2446],[-74.565,4.2405],[-74.5587,4.2376],[-74.5541,4.2284],[-74.5443,4.2249],[-74.5449,4.222],[-74.5449,4.2162],[-74.5454,4.211],[-74.5437,4.2],[-74.5391,4.1884],[-74.5298,4.1734],[-74.5206,4.1612],[-74.5154,4.156],[-74.5091,4.1438],[-74.5056,4.1323],[-74.5039,4.1225],[-74.5033,4.1086],[-74.5044,4.0999],[-74.50565,4.09584],[-74.5067,4.0924],[-74.5108,4.0872],[-74.5125,4.0838],[-74.5223,4.0711],[-74.5298,4.0636],[-74.5304,4.0521],[-74.5401,4.0371],[-74.543,4.0262],[-74.539,4.0163],[-74.5344,4.0065],[-74.5344,3.9926],[-74.539,3.9897],[-74.5436,3.9875],[-74.5476,3.9794],[-74.5516,3.9725],[-74.5528,3.9638],[-74.5516,3.9598],[-74.5372,3.9274],[-74.5291,3.9106],[-74.528,3.9054],[-74.5297,3.8944],[-74.5377,3.8754],[-74.551,3.8558],[-74.555,3.8235],[-74.5631,3.8039],[-74.5717,3.8079],[-74.5717,3.8045],[-74.5729,3.7998],[-74.5729,3.7929],[-74.5752,3.7848],[-74.5775,3.775],[-74.5803,3.7722],[-74.5809,3.7658],[-74.5878,3.7549],[-74.5976,3.7295],[-74.6022,3.7197],[-74.6258,3.6921],[-74.6495,3.6771],[-74.66249,3.66914],[-74.6748,3.6616],[-74.6886,3.6473],[-74.7088,3.6271],[-74.7272,3.607],[-74.7428,3.5943],[-74.7566,3.5863],[-74.7641,3.5742],[-74.7635,3.5569],[-74.7635,3.5448],[-74.775,3.5292],[-74.7871,3.5189],[-74.8067,3.5045],[-74.809,3.493],[-74.8073,3.4854],[-74.8067,3.4797],[-74.8142,3.4745],[-74.7986,3.46],[-74.7969,3.4496],[-74.7929,3.4403],[-74.79,3.4322],[-74.7929,3.423],[-74.8044,3.4109],[-74.8113,3.4023],[-74.81528,3.39766],[-74.8222,3.3896],[-74.8297,3.381],[-74.8412,3.3695],[-74.8505,3.3597],[-74.862,3.3517],[-74.8701,3.3401],[-74.8787,3.3292],[-74.8943,3.3183],[-74.9035,3.3091],[-74.9121,3.3028],[-74.9277,3.2913],[-74.9386,3.2827],[-74.9473,3.2717],[-74.9553,3.2666],[-74.9617,3.2666],[-74.9651,3.2666],[-74.9709,3.2666],[-74.9795,3.2661],[-74.9824,3.2667],[-74.9928,3.2667],[-75.0078,3.2645],[-75.021,3.2599],[-75.03028,3.25998],[-75.0355,3.2623],[-75.0383,3.2646],[-75.0464,3.2687],[-75.0551,3.2722],[-75.0677,3.274],[-75.0839,3.2746],[-75.0885,3.2752],[-75.0966,3.281],[-75.0994,3.2828],[-75.1018,3.2914],[-75.1035,3.3013],[-75.096,3.3087],[-75.0891,3.3139],[-75.0793,3.3202],[-75.0695,3.3271],[-75.062,3.334],[-75.0597,3.3409],[-75.0522,3.3461],[-75.0447,3.3547],[-75.0413,3.3645],[-75.0459,3.3779],[-75.0494,3.3848],[-75.0505,3.394],[-75.0563,3.4079],[-75.06009,3.41397],[-75.0621,3.4172],[-75.0632,3.4236],[-75.0765,3.43],[-75.0874,3.4277],[-75.0995,3.4249],[-75.1162,3.4186],[-75.1272,3.4152],[-75.1433,3.4095],[-75.1554,3.4055],[-75.167,3.402],[-75.1854,3.3975],[-75.1941,3.3941],[-75.1998,3.3889],[-75.2015,3.3837],[-75.2033,3.3762],[-75.2038,3.3704],[-75.21477,3.36583],[-75.2194,3.3659],[-75.2263,3.3832],[-75.2304,3.3896],[-75.2367,3.3954],[-75.2436,3.3977],[-75.2586,3.3955],[-75.2661,3.3915],[-75.2759,3.3875],[-75.2794,3.3788],[-75.2811,3.3713],[-75.2811,3.3615],[-75.284,3.3557],[-75.2891,3.3546],[-75.2978,3.3616],[-75.303,3.368],[-75.3134,3.3744],[-75.322,3.3802],[-75.3353,3.3877],[-75.3393,3.3918],[-75.3526,3.3924],[-75.3612,3.3884],[-75.367,3.3856],[-75.3843,3.3891],[-75.3958,3.3868],[-75.4062,3.3788],[-75.4096,3.3638],[-75.4108,3.3545],[-75.4281,3.346],[-75.45,3.3351],[-75.4621,3.3311],[-75.469,3.323],[-75.4811,3.3],[-75.4926,3.2937],[-75.5174,3.2863],[-75.5352,3.2771],[-75.5468,3.2685],[-75.5514,3.2627],[-75.5583,3.2541],[-75.5721,3.2443],[-75.59,3.2328],[-75.5986,3.2242],[-75.6055,3.215],[-75.6061,3.2058],[-75.6061,3.2],[-75.6061,3.1879],[-75.5998,3.1797],[-75.5969,3.1699],[-75.594,3.1653],[-75.5917,3.1589],[-75.5917,3.152],[-75.5957,3.1451],[-75.6049,3.1382],[-75.61166,3.13748],[-75.6153,3.1371],[-75.6176,3.1371],[-75.6228,3.1365],[-75.6326,3.1366],[-75.6505,3.1337],[-75.6672,3.1303],[-75.6868,3.1229],[-75.7012,3.112],[-75.715,3.1028],[-75.7346,3.0925],[-75.7461,3.0833],[-75.7576,3.0759],[-75.7599,3.0695],[-75.7628,3.0643],[-75.7697,3.0592],[-75.7795,3.0476],[-75.7801,3.0396],[-75.7813,3.0378],[-75.7859,3.0332],[-75.7928,3.0344],[-75.7968,3.0362],[-75.8032,3.0408],[-75.8095,3.046],[-75.8233,3.0478],[-75.8349,3.0479],[-75.8418,3.045],[-75.8516,3.0393],[-75.8596,3.0312],[-75.866,3.0232],[-75.8729,3.0145],[-75.8752,3.0111],[-75.8781,3.0047],[-75.881,2.9984],[-75.8821,2.9938],[-75.8861,2.9863],[-75.889,2.9834],[-75.8925,2.9805],[-75.8982,2.9765],[-75.9184,2.9749],[-75.9299,2.9732],[-75.9322,2.9732],[-75.9345,2.972],[-75.949,2.9704],[-75.9565,2.9669],[-75.968,2.9751],[-75.9761,2.9763],[-75.9905,2.9746],[-76.0049,2.9689],[-76.0135,2.9758],[-76.0187,2.9805],[-76.0216,2.9845],[-76.0343,2.9915],[-76.0539,2.9985],[-76.0574,3.0003],[-76.0672,3.0113],[-76.0735,3.024],[-76.0758,3.0269],[-76.0798,3.0298],[-76.0822,3.0379],[-76.0839,3.0472],[-76.092,3.0593],[-76.0943,3.0674],[-76.0983,3.0796],[-76.1006,3.0923],[-76.0995,3.1079],[-76.1007,3.1171],[-76.1001,3.1298],[-76.0995,3.1437],[-76.1001,3.1639],[-76.0961,3.1668],[-76.09595,3.16804],[-76.0955,3.172],[-76.0972,3.1864],[-76.09848,3.2025],[-76.09715,3.20859],[-76.0949,3.2188],[-76.0955,3.2292],[-76.0927,3.239],[-76.0846,3.2517],[-76.0829,3.2632],[-76.0765,3.2788],[-76.069,3.2967],[-76.065,3.3203],[-76.0633,3.3272],[-76.0616,3.3342],[-76.0529,3.3613],[-76.0455,3.3826],[-76.038,3.4011],[-76.0305,3.408],[-76.0247,3.4316],[-76.0196,3.4692],[-76.0196,3.472],[-76.0196,3.4772],[-76.0138,3.4934],[-76.0098,3.5136],[-76.0098,3.5413],[-76.0116,3.5587],[-76.0121,3.5725],[-76.0087,3.5939],[-76.0012,3.6141],[-75.9983,3.6377],[-75.992,3.6545],[-75.9817,3.6833],[-75.9782,3.6896],[-75.9776,3.6966],[-75.977,3.7],[-75.9747,3.7029],[-75.9724,3.7087],[-75.9673,3.7231],[-75.9598,3.7404],[-75.9592,3.7479],[-75.95,3.7686],[-75.946,3.786],[-75.9362,3.8032],[-75.9241,3.8251],[-75.9131,3.8494],[-75.9005,3.8741],[-75.8872,3.896],[-75.8728,3.9133],[-75.8538,3.9311],[-75.84,3.9397],[-75.8262,3.9356],[-75.8244,3.9327],[-75.7789,3.9256],[-75.761,3.9331],[-75.7529,3.94],[-75.7506,3.9555],[-75.7443,3.9728],[-75.7322,3.9855],[-75.7282,3.9901],[-75.7247,3.9924],[-75.7144,4.0004],[-75.7098,4.0154],[-75.7138,4.0334],[-75.7184,4.0421],[-75.7248,4.0652],[-75.7288,4.0889],[-75.7288,4.1172],[-75.7283,4.1357],[-75.7196,4.1431],[-75.715,4.1472],[-75.7087,4.1587],[-75.6995,4.1754],[-75.6828,4.1979],[-75.6707,4.2255],[-75.66344,4.24119],[-75.6632,4.2417],[-75.6626,4.2451],[-75.6551,4.2544],[-75.6488,4.2676],[-75.6407,4.2797],[-75.6304,4.3039],[-75.6336,4.31194],[-75.63235,4.31247],[-75.6281,4.3143],[-75.6275,4.3334],[-75.6241,4.3495],[-75.6241,4.3634],[-75.6172,4.3801],[-75.612,4.3957],[-75.6079,4.4043],[-75.608,4.4142],[-75.608,4.4205],[-75.5982,4.4361],[-75.5907,4.4499],[-75.5792,4.4649],[-75.5723,4.4862],[-75.5653,4.4966],[-75.5602,4.5081],[-75.5498,4.5185],[-75.5371,4.5357],[-75.5314,4.545],[-75.5175,4.5541],[-75.5152,4.5576],[-75.4968,4.565],[-75.4881,4.5731],[-75.4772,4.5707],[-75.457,4.5862],[-75.44691,4.59265],[-75.4426,4.5954],[-75.4363,4.5989],[-75.4248,4.6075],[-75.4196,4.6132],[-75.4086,4.619],[-75.3942,4.6281],[-75.3827,4.6385],[-75.3735,4.6454],[-75.3746,4.6477],[-75.374,4.6529],[-75.3804,4.6645],[-75.3879,4.6709],[-75.396,4.6715],[-75.404,4.6773],[-75.4087,4.679],[-75.4104,4.6865],[-75.4081,4.6952],[-75.41961,4.70272],[-75.419,4.7103],[-75.419,4.7183],[-75.4144,4.7316],[-75.411,4.7697],[-75.4116,4.7819],[-75.4145,4.7848],[-75.4168,4.7969],[-75.4133,4.8055],[-75.4122,4.8119],[-75.4053,4.8188],[-75.3949,4.8315],[-75.3863,4.8349],[-75.3793,4.836],[-75.3678,4.8389],[-75.3586,4.8458],[-75.3546,4.8515],[-75.3551,4.8648],[-75.3534,4.874],[-75.3534,4.8815],[-75.3534,4.885],[-75.3569,4.8908],[-75.3598,4.9018],[-75.3615,4.9087],[-75.3627,4.9122],[-75.3638,4.9284],[-75.36208,4.93999],[-75.3615,4.9445],[-75.3587,4.9538],[-75.3535,4.9676],[-75.3466,4.9838],[-75.3448,4.9936],[-75.3483,5.0017],[-75.3483,5.015],[-75.3564,5.0265],[-75.357,5.0335],[-75.3599,5.0433],[-75.3622,5.0508],[-75.361,5.0681],[-75.361,5.0837],[-75.3593,5.086],[-75.3564,5.0883],[-75.3466,5.0981],[-75.3415,5.105],[-75.3351,5.1166],[-75.3253,5.1269],[-75.3109,5.1286],[-75.3,5.1251],[-75.2913,5.1239],[-75.2746,5.1244],[-75.2642,5.1261],[-75.2538,5.1278],[-75.2423,5.1306],[-75.2291,5.1369],[-75.2175,5.1438],[-75.2077,5.1536],[-75.1962,5.1547],[-75.1899,5.1546],[-75.187,5.1546],[-75.1841,5.1529],[-75.1766,5.1459],[-75.1662,5.1453],[-75.1622,5.1453],[-75.1559,5.1493],[-75.1507,5.1533],[-75.1449,5.1672],[-75.1363,5.1804],[-75.1248,5.2058],[-75.1155,5.2231],[-75.1058,5.2404],[-75.09431,5.25322],[-75.0919,5.2559],[-75.0873,5.257],[-75.0764,5.2581],[-75.0631,5.2708],[-75.0516,5.2731],[-75.0366,5.2776],[-75.0314,5.2782],[-75.0251,5.2781],[-75.0112,5.2804],[-75.0049,5.28066],[-74.9991,5.2809],[-74.9865,5.2809],[-74.9732,5.2808],[-74.9599,5.2813],[-74.9478,5.2813],[-74.9248,5.2812],[-74.9098,5.2817],[-74.9006,5.2869],[-74.8913,5.2915],[-74.8764,5.2914],[-74.87273,5.29121],[-74.8648,5.2908],[-74.8556,5.2901],[-74.8504,5.2901],[-74.8441,5.282],[-74.84,5.2814]]]}},{"type":"Feature","properties":{"tipo":"municipio","dep":"29","mun":"001","nombre":"IBAGUE"},"geometry":{"type":"Polygon","coordinates":[[[-75.374,4.672],[-75.37,4.674],[-75.37,4.67],[-75.354,4.663],[-75.356,4.66],[-75.321,4.656],[-75.306,4.636],[-75.303,4.624],[-75.298,4.621],[-75.297,4.625],[-75.291,4.625],[-75.29,4.615],[-75.282,4.609],[-75.292,4.577],[-75.289,4.572],[-75.279,4.571],[-75.263,4.559],[-75.249,4.563],[-75.228,4.558],[-75.22,4.551],[-75.22,4.54],[-75.215,4.534],[-75.199,4.533],[-75.183,4.542],[-75.154,4.537],[-75.151,4.543],[-75.132,4.541],[-75.127,4.543],[-75.128,4.548],[-75.114,4.563],[-75.085,4.561],[-75.074,4.568],[-75.067,4.559],[-75.07,4.552],[-75.067,4.544],[-75.057,4.545],[-75.048,4.533],[-75.06,4.518],[-75.057,4.511],[-75.064,4.507],[-75.06,4.497],[-75.064,4.494],[-75.056,4.475],[-75.047,4.466],[-75.043,4.45],[-75.062,4.436],[-75.07,4.436],[-75.062,4.404],[-75.048,4.403],[-75.03,4.396],[-75.019,4.399],[-74.992,4.393],[-74.997,4.358],[-74.988,4.352],[-74.965,4.362],[-74.97,4.346],[-74.981,4.336],[-74.986,4.314],[-75.005,4.297],[-75.008,4.303],[-75.002,4.311],[-75.004,4.323],[-75.011,4.327],[-75.027,4.326],[-75.034,4.294],[-75.035,4.285],[-75.03,4.281],[-75.075,4.284],[-75.086,4.29],[-75.089,4.301],[-75.1,4.302],[-75.106,4.314],[-75.115,4.319],[-75.129,4.318],[-75.138,4.325],[-75.178,4.315],[-75.195,4.297],[-75.226,4.294],[-75.235,4.313],[-75.231,4.317],[-75.252,4.351],[-75.261,4.345],[-75.291,4.345],[-75.292,4.339],[-75.308,4.342],[-75.315,4.352],[-75.328,4.345],[-75.331,4.336],[-75.357,4.306],[-75.379,4.311],[-75.389,4.302],[-75.506,4.259],[-75.52,4.257],[-75.522,4.263],[-75.504,4.299],[-75.504,4.307],[-75.489,4.323],[-75.486,4.334],[-75.462,4.351],[-75.442,4.353],[-75.432,4.365],[-75.393,4.373],[-75.366,4.394],[-75.369,4.419],[-75.376,4.414],[-75.377,4.418],[-75.367,4.423],[-75.37,4.444],[-75.389,4.455],[-75.401,4.471],[-75.409,4.488],[-75.406,4.507],[-75.41,4.521],[-75.417,4.528],[-75.44,4.528],[-75.455,4.523],[-75.469,4.531],[-75.472,4.542],[-75.484,4.555],[-75.48,4.566],[-75.482,4.583],[-75.475,4.585],[-75.469,4.598],[-75.458,4.603],[-75.431,4.602],[-75.42,4.613],[-75.416,4.625],[-75.422,4.657],[-75.399,4.692],[-75.387,4.699],[-75.374,4.672]]]}},{"type":"Feature","properties":{"tipo":"municipio","dep":"29","mun":"004","nombre":"ALPUJARRA"},"geometry":{"type":"Polygon","coordinates":[[[-74.992,3.505],[-74.973,3.501],[-74.968,3.488],[-74.95,3.477],[-74.936,3.48],[-74.93,3.498],[-74.902,3.49],[-74.888,3.502],[-74.884,3.501],[-74.88,3.506],[-74.866,3.507],[-74.859,3.512],[-74.845,3.509],[-74.83,3.495],[-74.829,3.487],[-74.852,3.455],[-74.828,3.434],[-74.821,3.415],[-74.811,3.411],[-74.818,3.403],[-74.815,3.394],[-74.826,3.389],[-74.827,3.376],[-74.849,3.351],[-74.848,3.342],[-74.868,3.327],[-74.876,3.326],[-74.88,3.315],[-74.907,3.29],[-74.952,3.282],[-74.959,3.277],[-74.98,3.285],[-75,3.277],[-75.013,3.288],[-75.05,3.289],[-75.072,3.296],[-75.068,3.309],[-75.058,3.315],[-75.055,3.379],[-75.032,3.386],[-75.035,3.391],[-75.028,3.392],[-75.031,3.4],[-75.042,3.408],[-75.04,3.421],[-75.024,3.446],[-75.006,3.458],[-75.005,3.47],[-74.993,3.474],[-74.997,3.481],[-74.993,3.493],[-75.005,3.499],[-74.996,3.513],[-74.992,3.505]]]}},{"type":"Feature","properties":{"tipo":"municipio","dep":"29","mun":"007","nombre":"ALVARADO"},"geometry":{"type":"Polygon","coordinates":[[[-74.958,4.693],[-74.955,4.674],[-74.944,4.671],[-74.943,4.661],[-74.935,4.65],[-74.929,4.649],[-74.929,4.642],[-74.91,4.634],[-74.903,4.639],[-74.893,4.637],[-74.889,4.63],[-74.869,4.628],[-74.867,4.622],[-74.873,4.617],[-74.869,4.615],[-74.885,4.599],[-74.884,4.59],[-74.9,4.575],[-74.899,4.571],[-74.902,4.572],[-74.903,4.565],[-74.909,4.566],[-74.912,4.557],[-74.92,4.556],[-74.923,4.548],[-74.927,4.548],[-74.929,4.538],[-74.94,4.536],[-74.944,4.529],[-74.954,4.525],[-74.96,4.512],[-74.967,4.51],[-74.975,4.49],[-74.984,4.487],[-74.987,4.479],[-74.995,4.474],[-75.007,4.473],[-75.015,4.459],[-75.027,4.452],[-75.042,4.449],[-75.047,4.466],[-75.056,4.475],[-75.064,4.494],[-75.06,4.497],[-75.064,4.507],[-75.057,4.511],[-75.06,4.518],[-75.048,4.533],[-75.057,4.545],[-75.067,4.544],[-75.07,4.552],[-75.067,4.559],[-75.076,4.57],[-75.061,4.58],[-75.062,4.584],[-75.054,4.584],[-75.057,4.596],[-75.053,4.608],[-75.045,4.611],[-75.046,4.618],[-75.038,4.623],[-75.038,4.634],[-75.03,4.633],[-75.022,4.639],[-75.043,4.647],[-75.041,4.658],[-75.048,4.666],[-75.03,4.671],[-75.029,4.675],[-75.019,4.68],[-75.013,4.695],[-75.006,4.694],[-74.992,4.699],[-74.989,4.695],[-74.982,4.703],[-74.958,4.693]]]}},{"type":"Feature","properties":{"tipo":"municipio","dep":"29","mun":"010","nombre":"AMBALEMA"},"geometry":{"type":"Polygon","coordinates":[[[-74.821,4.721],[-74.83,4.727],[-74.834,4.736],[-74.837,4.731],[-74.833,4.729],[-74.832,4.722],[-74.838,4.728],[-74.847,4.725],[-74.865,4.713],[-74.873,4.712],[-74.888,4.733],[-74.864,4.745],[-74.87,4.744],[-74.874,4.75],[-74.872,4.768],[-74.866,4.774],[-74.87,4.773],[-74.867,4.78],[-74.873,4.793],[-74.871,4.819],[-74.857,4.822],[-74.838,4.838],[-74.825,4.838],[-74.847,4.844],[-74.813,4.87],[-74.812,4.891],[-74.818,4.901],[-74.814,4.915],[-74.833,4.911],[-74.836,4.926],[-74.821,4.933],[-74.798,4.929],[-74.787,4.931],[-74.782,4.939],[-74.755,4.937],[-74.755,4.943],[-74.747,4.947],[-74.731,4.935],[-74.74,4.91],[-74.732,4.892],[-74.738,4.883],[-74.752,4.89],[-74.756,4.878],[-74.753,4.863],[-74.768,4.843],[-74.76,4.832],[-74.746,4.827],[-74.744,4.789],[-74.771,4.772],[-74.778,4.76],[-74.775,4.75],[-74.8,4.744],[-74.816,4.731],[-74.821,4.721]]]}},{"type":"Feature","properties":{"tipo":"municipio","dep":"29","mun":"013","nombre":"ANZOATEGUI"},"geometry":{"type":"Polygon","coordinates":[[[-75.186,4.711],[-75.173,4.696],[-75.165,4.694],[-75.166,4.689],[-75.159,4.68],[-75.154,4.682],[-75.151,4.674],[-75.139,4.67],[-75.138,4.666],[-75.127,4.663],[-75.12,4.668],[-75.113,4.667],[-75.101,4.663],[-75.097,4.657],[-75.082,4.661],[-75.077,4.668],[-75.078,4.676],[-75.073,4.685],[-75.05,4.692],[-75.051,4.697],[-75.046,4.7],[-75.038,4.696],[-75.035,4.703],[-75.033,4.696],[-75.029,4.7],[-75.022,4.699],[-75.023,4.695],[-75.017,4.689],[-75.018,4.68],[-75.029,4.675],[-75.03,4.671],[-75.048,4.666],[-75.041,4.658],[-75.043,4.647],[-75.022,4.639],[-75.03,4.633],[-75.039,4.634],[-75.038,4.623],[-75.046,4.618],[-75.045,4.611],[-75.053,4.608],[-75.057,4.596],[-75.054,4.584],[-75.062,4.584],[-75.061,4.58],[-75.068,4.579],[-75.081,4.562],[-75.114,4.563],[-75.128,4.548],[-75.128,4.542],[-75.151,4.543],[-75.154,4.537],[-75.183,4.542],[-75.199,4.533],[-75.215,4.534],[-75.22,4.54],[-75.22,4.551],[-75.228,4.558],[-75.249,4.563],[-75.263,4.559],[-75.279,4.571],[-75.289,4.572],[-75.292,4.577],[-75.282,4.609],[-75.29,4.615],[-75.291,4.625],[-75.297,4.625],[-75.298,4.621],[-75.303,4.624],[-75.306,4.636],[-75.322,4.657],[-75.356,4.66],[-75.354,4.663],[-75.37,4.67],[-75.37,4.674],[-75.374,4.672],[-75.387,4.699],[-75.384,4.708],[-75.372,4.705],[-75.362,4.708],[-75.351,4.701],[-75.323,4.702],[-75.298,4.711],[-75.286,4.71],[-75.276,4.716],[-75.265,4.714],[-75.255,4.706],[-75.241,4.712],[-75.224,4.712],[-75.224,4.715],[-75.186,4.711]]]}},{"type":"Feature","properties":{"tipo":"municipio","dep":"29","mun":"016","nombre":"ARMERO (GUAYABAL)"},"geometry":{"type":"Polygon","coordinates":[[[-74.875,5.136],[-74.852,5.122],[-74.852,5.113],[-74.845,5.1],[-74.815,5.095],[-74.808,5.092],[-74.792,5.097],[-74.777,5.11],[-74.769,5.11],[-74.773,5.069],[-74.763,5.041],[-74.754,5.048],[-74.748,5.045],[-74.745,5.05],[-74.734,5.053],[-74.732,5.048],[-74.743,5.002],[-74.718,4.993],[-74.709,4.983],[-74.713,4.974],[-74.732,4.977],[-74.744,4.966],[-74.751,4.954],[-74.747,4.947],[-74.755,4.943],[-74.755,4.937],[-74.782,4.939],[-74.787,4.931],[-74.798,4.929],[-74.821,4.933],[-74.835,4.927],[-74.833,4.911],[-74.814,4.915],[-74.818,4.901],[-74.812,4.888],[-74.833,4.89],[-74.836,4.885],[-74.838,4.889],[-74.864,4.892],[-74.868,4.887],[-74.875,4.888],[-74.88,4.902],[-74.887,4.908],[-74.887,4.916],[-74.906,4.945],[-74.907,4.953],[-74.917,4.963],[-74.928,4.964],[-74.945,4.959],[-74.976,4.968],[-74.981,4.976],[-74.998,4.979],[-75.006,4.986],[-75.011,4.996],[-75.016,4.997],[-75.009,5.009],[-75.005,5.007],[-74.994,5.012],[-74.984,5.024],[-74.969,5.013],[-74.962,5.014],[-74.96,5.02],[-74.949,5.019],[-74.931,5.027],[-74.924,5.024],[-74.908,5.032],[-74.907,5.037],[-74.894,5.03],[-74.892,5.058],[-74.899,5.065],[-74.89,5.069],[-74.887,5.066],[-74.883,5.072],[-74.889,5.072],[-74.89,5.087],[-74.897,5.089],[-74.89,5.094],[-74.891,5.099],[-74.899,5.094],[-74.904,5.098],[-74.901,5.122],[-74.905,5.135],[-74.902,5.141],[-74.886,5.149],[-74.874,5.142],[-74.875,5.136]]]}},{"type":"Feature","properties":{"tipo":"municipio","dep":"29","mun":"019","nombre":"ATACO"},"geometry":{"type":"Polygon","coordinates":[[[-75.331,3.648],[-75.324,3.642],[-75.324,3.631],[-75.32,3.63],[-75.313,3.613],[-75.289,3.609],[-75.283,3.602],[-75.283,3.589],[-75.265,3.577],[-75.272,3.57],[-75.284,3.572],[-75.29,3.561],[-75.289,3.552],[-75.293,3.551],[-75.289,3.547],[-75.286,3.539],[-75.269,3.524],[-75.266,3.514],[-75.257,3.51],[-75.256,3.493],[-75.266,3.488],[-75.265,3.479],[-75.278,3.477],[-75.28,3.471],[-75.303,3.45],[-75.298,3.447],[-75.297,3.44],[-75.289,3.441],[-75.284,3.425],[-75.276,3.42],[-75.277,3.402],[-75.272,3.396],[-75.272,3.386],[-75.268,3.382],[-75.277,3.383],[-75.302,3.399],[-75.302,3.404],[-75.308,3.404],[-75.309,3.412],[-75.319,3.419],[-75.323,3.413],[-75.321,3.408],[-75.341,3.398],[-75.342,3.406],[-75.356,3.403],[-75.357,3.408],[-75.367,3.406],[-75.374,3.396],[-75.371,3.388],[-75.377,3.382],[-75.375,3.375],[-75.396,3.377],[-75.407,3.369],[-75.415,3.371],[-75.426,3.352],[-75.441,3.345],[-75.445,3.357],[-75.463,3.354],[-75.481,3.36],[-75.487,3.346],[-75.486,3.332],[-75.491,3.326],[-75.499,3.321],[-75.511,3.329],[-75.527,3.32],[-75.521,3.312],[-75.525,3.297],[-75.531,3.292],[-75.53,3.286],[-75.543,3.276],[-75.55,3.257],[-75.571,3.239],[-75.577,3.225],[-75.572,3.219],[-75.577,3.189],[-75.588,3.158],[-75.577,3.143],[-75.582,3.137],[-75.583,3.124],[-75.599,3.127],[-75.602,3.163],[-75.596,3.17],[-75.599,3.183],[-75.59,3.198],[-75.608,3.221],[-75.603,3.246],[-75.606,3.264],[-75.613,3.267],[-75.609,3.284],[-75.611,3.299],[-75.627,3.297],[-75.63,3.292],[-75.65,3.291],[-75.661,3.279],[-75.676,3.284],[-75.689,3.279],[-75.698,3.286],[-75.703,3.315],[-75.723,3.317],[-75.734,3.323],[-75.742,3.321],[-75.73,3.33],[-75.734,3.337],[-75.724,3.349],[-75.718,3.376],[-75.709,3.384],[-75.697,3.422],[-75.689,3.429],[-75.682,3.449],[-75.674,3.453],[-75.674,3.463],[-75.664,3.468],[-75.637,3.456],[-75.631,3.46],[-75.604,3.456],[-75.598,3.452],[-75.578,3.453],[-75.581,3.46],[-75.576,3.465],[-75.544,3.463],[-75.52,3.475],[-75.495,3.478],[-75.48,3.486],[-75.458,3.474],[-75.455,3.483],[-75.432,3.509],[-75.427,3.527],[-75.417,3.536],[-75.421,3.557],[-75.413,3.573],[-75.396,3.592],[-75.366,3.611],[-75.367,3.628],[-75.363,3.636],[-75.353,3.64],[-75.359,3.646],[-75.354,3.661],[-75.339,3.66],[-75.328,3.665],[-75.324,3.664],[-75.331,3.648]]]}},{"type":"Feature","properties":{"tipo":"municipio","dep":"29","mun":"022","nombre":"CAJAMARCA"},"geometry":{"type":"Polygon","coordinates":[[[-75.484,4.555],[-75.472,4.542],[-75.469,4.531],[-75.454,4.523],[-75.44,4.528],[-75.419,4.528],[-75.41,4.521],[-75.406,4.507],[-75.409,4.488],[-75.401,4.471],[-75.389,4.455],[-75.37,4.444],[-75.367,4.423],[-75.377,4.418],[-75.376,4.414],[-75.369,4.419],[-75.366,4.394],[-75.393,4.373],[-75.432,4.365],[-75.442,4.353],[-75.462,4.351],[-75.486,4.334],[-75.489,4.323],[-75.504,4.307],[-75.504,4.299],[-75.522,4.263],[-75.521,4.256],[-75.528,4.255],[-75.539,4.244],[-75.567,4.233],[-75.573,4.23],[-75.578,4.233],[-75.579,4.263],[-75.596,4.271],[-75.597,4.283],[-75.604,4.29],[-75.596,4.317],[-75.599,4.333],[-75.594,4.359],[-75.579,4.408],[-75.583,4.426],[-75.577,4.438],[-75.578,4.453],[-75.57,4.456],[-75.561,4.472],[-75.547,4.478],[-75.538,4.492],[-75.525,4.498],[-75.528,4.515],[-75.522,4.527],[-75.523,4.543],[-75.515,4.555],[-75.499,4.563],[-75.482,4.583],[-75.484,4.555]]]}},{"type":"Feature","properties":{"tipo":"municipio","dep":"29","mun":"025","nombre":"CARMEN DE APICALA"},"geometry":{"type":"Polygon","coordinates":[[[-74.745,4.22],[-74.75,4.218],[-74.747,4.206],[-74.753,4.206],[-74.753,4.203],[-74.744,4.204],[-74.739,4.194],[-74.732,4.194],[-74.725,4.186],[-74.715,4.189],[-74.718,4.184],[-74.711,4.173],[-74.689,4.171],[-74.685,4.162],[-74.679,4.164],[-74.681,4.16],[-74.671,4.151],[-74.682,4.143],[-74.678,4.137],[-74.688,4.126],[-74.692,4.102],[-74.683,4.096],[-74.692,4.087],[-74.705,4.085],[-74.717,4.072],[-74.735,4.063],[-74.747,4.043],[-74.778,4.012],[-74.791,4.018],[-74.798,4.027],[-74.794,4.075],[-74.798,4.091],[-74.793,4.095],[-74.796,4.1],[-74.785,4.137],[-74.79,4.175],[-74.768,4.227],[-74.756,4.242],[-74.745,4.248],[-74.745,4.22]]]}},{"type":"Feature","properties":{"tipo":"municipio","dep":"29","mun":"028","nombre":"CASABIANCA"},"geometry":{"type":"Polygon","coordinates":[[[-75.068,5.123],[-75.062,5.117],[-75.047,5.122],[-75.042,5.119],[-75.047,5.107],[-75.045,5.101],[-75.055,5.095],[-75.065,5.077],[-75.057,5.069],[-75.049,5.067],[-75.045,5.054],[-75.048,5.047],[-75.054,5.047],[-75.066,5.032],[-75.07,5.037],[-75.091,5.034],[-75.095,5.044],[-75.092,5.049],[-75.104,5.064],[-75.112,5.067],[-75.121,5.06],[-75.122,5.053],[-75.135,5.054],[-75.142,5.051],[-75.143,5.041],[-75.147,5.041],[-75.143,5.031],[-75.149,5.016],[-75.162,5.012],[-75.167,4.998],[-75.187,4.995],[-75.205,4.982],[-75.213,4.982],[-75.221,4.973],[-75.243,4.973],[-75.257,4.951],[-75.265,4.948],[-75.275,4.934],[-75.281,4.934],[-75.3,4.92],[-75.3,4.913],[-75.315,4.905],[-75.319,4.893],[-75.335,4.9],[-75.342,4.935],[-75.347,4.938],[-75.343,4.949],[-75.333,4.953],[-75.324,4.968],[-75.304,4.976],[-75.296,4.975],[-75.253,4.997],[-75.239,4.999],[-75.228,4.995],[-75.214,5],[-75.199,5.022],[-75.177,5.04],[-75.172,5.054],[-75.148,5.064],[-75.15,5.07],[-75.143,5.088],[-75.138,5.085],[-75.129,5.093],[-75.121,5.093],[-75.113,5.103],[-75.114,5.11],[-75.106,5.112],[-75.105,5.118],[-75.068,5.123]]]}},{"type":"Feature","properties":{"tipo":"municipio","dep":"29","mun":"040","nombre":"CHAPARRAL"},"geometry":{"type":"Polygon","coordinates":[[[-75.713,3.978],[-75.696,3.973],[-75.688,3.963],[-75.668,3.964],[-75.652,3.954],[-75.65,3.938],[-75.656,3.931],[-75.624,3.932],[-75.608,3.926],[-75.602,3.897],[-75.584,3.893],[-75.58,3.877],[-75.566,3.858],[-75.549,3.861],[-75.544,3.855],[-75.507,3.84],[-75.504,3.844],[-75.485,3.843],[-75.479,3.847],[-75.473,3.839],[-75.468,3.839],[-75.464,3.829],[-75.46,3.828],[-75.45,3.845],[-75.445,3.87],[-75.408,3.861],[-75.388,3.842],[-75.365,3.829],[-75.35,3.814],[-75.35,3.806],[-75.344,3.807],[-75.344,3.802],[-75.339,3.806],[-75.331,3.804],[-75.324,3.813],[-75.314,3.803],[-75.304,3.807],[-75.307,3.8],[-75.31,3.757],[-75.305,3.759],[-75.302,3.754],[-75.283,3.764],[-75.27,3.76],[-75.292,3.69],[-75.297,3.687],[-75.298,3.695],[-75.302,3.695],[-75.305,3.676],[-75.312,3.667],[-75.328,3.665],[-75.339,3.66],[-75.354,3.661],[-75.359,3.646],[-75.353,3.64],[-75.363,3.636],[-75.367,3.628],[-75.366,3.611],[-75.396,3.592],[-75.413,3.573],[-75.421,3.557],[-75.417,3.536],[-75.427,3.527],[-75.432,3.509],[-75.455,3.483],[-75.458,3.474],[-75.48,3.486],[-75.495,3.478],[-75.52,3.475],[-75.544,3.463],[-75.569,3.467],[-75.58,3.463],[-75.583,3.47],[-75.581,3.497],[-75.585,3.501],[-75.579,3.519],[-75.585,3.55],[-75.583,3.564],[-75.59,3.569],[-75.588,3.581],[-75.595,3.579],[-75.596,3.573],[-75.603,3.569],[-75.615,3.571],[-75.622,3.578],[-75.626,3.576],[-75.627,3.591],[-75.632,3.594],[-75.636,3.612],[-75.652,3.624],[-75.659,3.619],[-75.687,3.648],[-75.698,3.653],[-75.725,3.642],[-75.738,3.648],[-75.745,3.645],[-75.756,3.683],[-75.769,3.686],[-75.782,3.676],[-75.79,3.679],[-75.799,3.698],[-75.822,3.718],[-75.823,3.759],[-75.831,3.774],[-75.85,3.776],[-75.853,3.767],[-75.859,3.767],[-75.869,3.752],[-75.881,3.753],[-75.89,3.75],[-75.895,3.742],[-75.905,3.746],[-75.914,3.742],[-75.917,3.749],[-75.907,3.781],[-75.901,3.785],[-75.903,3.796],[-75.892,3.804],[-75.893,3.813],[-75.885,3.813],[-75.871,3.825],[-75.863,3.848],[-75.854,3.852],[-75.862,3.863],[-75.859,3.88],[-75.834,3.91],[-75.828,3.902],[-75.822,3.903],[-75.816,3.919],[-75.812,3.92],[-75.806,3.953],[-75.792,3.971],[-75.797,3.989],[-75.792,4.008],[-75.776,4.006],[-75.769,4.02],[-75.746,4.044],[-75.732,4.026],[-75.736,4.014],[-75.713,3.978]]]}},{"type":"Feature","properties":{"tipo":"municipio","dep":"29","mun":"031","nombre":"COELLO"},"geometry":{"type":"Polygon","coordinates":[[[-74.853,4.498],[-74.832,4.513],[-74.832,4.497],[-74.821,4.491],[-74.813,4.497],[-74.796,4.496],[-74.808,4.453],[-74.815,4.446],[-74.833,4.445],[-74.833,4.405],[-74.838,4.398],[-74.84,4.379],[-74.855,4.367],[-74.852,4.358],[-74.856,4.335],[-74.865,4.333],[-74.884,4.317],[-74.885,4.311],[-74.874,4.31],[-74.874,4.305],[-74.897,4.287],[-74.897,4.279],[-74.901,4.277],[-74.897,4.274],[-74.902,4.254],[-74.907,4.255],[-74.908,4.249],[-74.915,4.247],[-74.911,4.236],[-74.919,4.237],[-74.922,4.225],[-74.935,4.214],[-74.955,4.208],[-74.962,4.215],[-74.973,4.21],[-74.982,4.239],[-74.998,4.248],[-75,4.262],[-75.009,4.26],[-75.022,4.274],[-75.021,4.279],[-75.035,4.285],[-75.034,4.294],[-75.027,4.326],[-75.012,4.327],[-75.004,4.323],[-75.002,4.311],[-75.008,4.303],[-75.005,4.297],[-74.986,4.313],[-74.982,4.334],[-74.97,4.346],[-74.965,4.362],[-74.949,4.364],[-74.936,4.38],[-74.933,4.37],[-74.939,4.362],[-74.934,4.366],[-74.928,4.363],[-74.924,4.369],[-74.925,4.384],[-74.919,4.384],[-74.909,4.402],[-74.908,4.421],[-74.898,4.444],[-74.904,4.457],[-74.896,4.47],[-74.899,4.479],[-74.921,4.469],[-74.92,4.479],[-74.871,4.504],[-74.859,4.502],[-74.847,4.515],[-74.846,4.509],[-74.853,4.498]]]}},{"type":"Feature","properties":{"tipo":"municipio","dep":"29","mun":"034","nombre":"COYAIMA"},"geometry":{"type":"Polygon","coordinates":[[[-75.086,3.861],[-75.075,3.866],[-75.078,3.847],[-75.065,3.844],[-75.059,3.835],[-75.033,3.82],[-75.035,3.815],[-75.011,3.794],[-75.008,3.783],[-74.978,3.746],[-74.981,3.73],[-74.975,3.721],[-74.987,3.707],[-74.999,3.703],[-75.017,3.688],[-75.024,3.688],[-75.03,3.68],[-75.037,3.677],[-75.038,3.661],[-75.042,3.663],[-75.052,3.658],[-75.06,3.662],[-75.069,3.661],[-75.075,3.673],[-75.08,3.661],[-75.093,3.666],[-75.094,3.676],[-75.091,3.679],[-75.097,3.686],[-75.119,3.696],[-75.133,3.694],[-75.142,3.668],[-75.15,3.668],[-75.163,3.657],[-75.16,3.652],[-75.167,3.639],[-75.19,3.62],[-75.194,3.62],[-75.195,3.629],[-75.206,3.634],[-75.226,3.632],[-75.225,3.622],[-75.233,3.616],[-75.223,3.604],[-75.228,3.599],[-75.225,3.596],[-75.237,3.601],[-75.24,3.592],[-75.249,3.59],[-75.246,3.58],[-75.25,3.565],[-75.283,3.589],[-75.283,3.602],[-75.289,3.609],[-75.313,3.613],[-75.32,3.63],[-75.324,3.631],[-75.324,3.642],[-75.331,3.648],[-75.322,3.666],[-75.312,3.667],[-75.305,3.675],[-75.302,3.695],[-75.298,3.695],[-75.297,3.687],[-75.292,3.69],[-75.281,3.73],[-75.261,3.762],[-75.244,3.765],[-75.249,3.774],[-75.241,3.78],[-75.234,3.777],[-75.227,3.765],[-75.217,3.768],[-75.203,3.788],[-75.192,3.819],[-75.195,3.835],[-75.185,3.855],[-75.168,3.864],[-75.162,3.863],[-75.163,3.878],[-75.149,3.88],[-75.14,3.886],[-75.119,3.887],[-75.106,3.911],[-75.099,3.869],[-75.086,3.861]]]}},{"type":"Feature","properties":{"tipo":"municipio","dep":"29","mun":"037","nombre":"CUNDAY"},"geometry":{"type":"Polygon","coordinates":[[[-74.627,4.12],[-74.626,4.098],[-74.609,4.095],[-74.599,4.085],[-74.576,4.083],[-74.561,4.068],[-74.564,4.053],[-74.541,4.021],[-74.546,3.987],[-74.542,3.976],[-74.531,3.976],[-74.538,3.972],[-74.592,3.982],[-74.612,3.996],[-74.63,3.978],[-74.635,3.977],[-74.64,3.983],[-74.643,3.968],[-74.669,3.95],[-74.662,3.945],[-74.654,3.919],[-74.659,3.917],[-74.662,3.9],[-74.668,3.901],[-74.671,3.888],[-74.681,3.885],[-74.683,3.88],[-74.702,3.874],[-74.696,3.86],[-74.7,3.85],[-74.693,3.843],[-74.697,3.821],[-74.691,3.811],[-74.707,3.801],[-74.732,3.843],[-74.752,3.855],[-74.761,3.875],[-74.756,3.88],[-74.764,3.894],[-74.771,3.895],[-74.768,3.905],[-74.777,3.905],[-74.782,3.892],[-74.791,3.885],[-74.789,3.881],[-74.797,3.871],[-74.801,3.878],[-74.809,3.882],[-74.816,3.877],[-74.818,3.888],[-74.826,3.895],[-74.807,3.937],[-74.806,3.954],[-74.803,3.956],[-74.808,3.965],[-74.805,3.978],[-74.795,3.986],[-74.771,4.021],[-74.747,4.043],[-74.74,4.058],[-74.714,4.074],[-74.705,4.085],[-74.692,4.087],[-74.683,4.096],[-74.665,4.104],[-74.63,4.132],[-74.633,4.127],[-74.627,4.12]]]}},{"type":"Feature","properties":{"tipo":"municipio","dep":"29","mun":"043","nombre":"DOLORES"},"geometry":{"type":"Polygon","coordinates":[[[-74.541,3.833],[-74.534,3.829],[-74.538,3.807],[-74.546,3.798],[-74.561,3.752],[-74.565,3.753],[-74.566,3.747],[-74.608,3.719],[-74.625,3.699],[-74.647,3.683],[-74.658,3.682],[-74.664,3.673],[-74.675,3.672],[-74.698,3.641],[-74.701,3.616],[-74.712,3.611],[-74.721,3.614],[-74.739,3.591],[-74.74,3.581],[-74.736,3.582],[-74.734,3.567],[-74.727,3.562],[-74.727,3.557],[-74.748,3.528],[-74.758,3.532],[-74.769,3.53],[-74.781,3.51],[-74.781,3.479],[-74.765,3.46],[-74.762,3.451],[-74.765,3.44],[-74.811,3.411],[-74.82,3.414],[-74.828,3.434],[-74.852,3.454],[-74.829,3.489],[-74.83,3.496],[-74.846,3.509],[-74.859,3.512],[-74.866,3.507],[-74.88,3.507],[-74.884,3.501],[-74.888,3.502],[-74.902,3.49],[-74.93,3.498],[-74.936,3.48],[-74.951,3.477],[-74.968,3.488],[-74.973,3.501],[-74.992,3.505],[-74.996,3.509],[-74.995,3.535],[-74.973,3.562],[-74.964,3.564],[-74.96,3.571],[-74.948,3.572],[-74.942,3.58],[-74.941,3.597],[-74.931,3.611],[-74.917,3.638],[-74.924,3.648],[-74.907,3.668],[-74.893,3.657],[-74.874,3.662],[-74.862,3.653],[-74.854,3.661],[-74.834,3.657],[-74.809,3.662],[-74.797,3.672],[-74.791,3.668],[-74.784,3.67],[-74.773,3.686],[-74.765,3.687],[-74.76,3.71],[-74.75,3.715],[-74.746,3.726],[-74.729,3.73],[-74.729,3.737],[-74.717,3.76],[-74.701,3.775],[-74.711,3.754],[-74.704,3.727],[-74.699,3.719],[-74.699,3.707],[-74.692,3.7],[-74.669,3.698],[-74.618,3.739],[-74.59,3.775],[-74.565,3.824],[-74.554,3.832],[-74.541,3.833]]]}},{"type":"Feature","properties":{"tipo":"municipio","dep":"29","mun":"046","nombre":"ESPINAL"},"geometry":{"type":"Polygon","coordinates":[[[-74.907,4.242],[-74.9,4.239],[-74.899,4.23],[-74.89,4.24],[-74.882,4.244],[-74.873,4.229],[-74.859,4.227],[-74.869,4.195],[-74.863,4.189],[-74.859,4.197],[-74.849,4.187],[-74.825,4.195],[-74.822,4.191],[-74.812,4.192],[-74.819,4.183],[-74.805,4.156],[-74.814,4.13],[-74.811,4.113],[-74.823,4.101],[-74.828,4.09],[-74.847,4.095],[-74.859,4.089],[-74.87,4.097],[-74.9,4.103],[-74.911,4.114],[-74.937,4.122],[-74.96,4.162],[-74.98,4.18],[-75,4.222],[-75,4.231],[-75.007,4.236],[-74.995,4.248],[-74.982,4.239],[-74.973,4.21],[-74.962,4.215],[-74.955,4.208],[-74.935,4.214],[-74.922,4.225],[-74.919,4.237],[-74.911,4.236],[-74.915,4.247],[-74.907,4.247],[-74.907,4.242]]]}},{"type":"Feature","properties":{"tipo":"municipio","dep":"29","mun":"049","nombre":"FALAN"},"geometry":{"type":"Polygon","coordinates":[[[-74.949,5.16],[-74.942,5.155],[-74.935,5.157],[-74.929,5.15],[-74.917,5.15],[-74.908,5.16],[-74.897,5.155],[-74.898,5.144],[-74.905,5.135],[-74.901,5.122],[-74.904,5.098],[-74.899,5.094],[-74.891,5.099],[-74.89,5.094],[-74.897,5.089],[-74.89,5.087],[-74.889,5.072],[-74.883,5.072],[-74.887,5.066],[-74.89,5.069],[-74.899,5.065],[-74.892,5.058],[-74.894,5.03],[-74.907,5.037],[-74.908,5.032],[-74.924,5.024],[-74.931,5.027],[-74.949,5.019],[-74.96,5.02],[-74.962,5.014],[-74.969,5.013],[-74.984,5.024],[-74.994,5.012],[-75.005,5.007],[-75.013,5.014],[-75.043,5.016],[-75.05,5.028],[-75.064,5.029],[-75.064,5.036],[-75.048,5.047],[-75.045,5.054],[-75.029,5.046],[-75.025,5.055],[-75.011,5.055],[-75.004,5.06],[-74.988,5.055],[-74.99,5.068],[-74.982,5.077],[-74.988,5.087],[-74.984,5.124],[-74.994,5.135],[-74.994,5.146],[-74.979,5.152],[-74.973,5.148],[-74.971,5.161],[-74.965,5.163],[-74.966,5.17],[-74.952,5.175],[-74.949,5.16]]]}},{"type":"Feature","properties":{"tipo":"municipio","dep":"29","mun":"052","nombre":"FLANDES"},"geometry":{"type":"Polygon","coordinates":[[[-74.787,4.255],[-74.795,4.247],[-74.797,4.221],[-74.801,4.216],[-74.804,4.196],[-74.818,4.191],[-74.825,4.195],[-74.848,4.187],[-74.859,4.197],[-74.863,4.189],[-74.869,4.195],[-74.859,4.227],[-74.873,4.229],[-74.882,4.244],[-74.89,4.24],[-74.897,4.23],[-74.9,4.239],[-74.907,4.242],[-74.908,4.253],[-74.902,4.254],[-74.897,4.274],[-74.901,4.277],[-74.897,4.279],[-74.895,4.289],[-74.89,4.291],[-74.877,4.265],[-74.836,4.275],[-74.813,4.294],[-74.805,4.286],[-74.788,4.288],[-74.777,4.283],[-74.787,4.255]]]}},{"type":"Feature","properties":{"tipo":"municipio","dep":"29","mun":"055","nombre":"FRESNO"},"geometry":{"type":"Polygon","coordinates":[[[-75,5.292],[-75.002,5.286],[-74.996,5.279],[-75.006,5.266],[-75.009,5.237],[-75,5.224],[-74.991,5.226],[-74.983,5.22],[-74.978,5.201],[-74.971,5.204],[-74.978,5.191],[-74.973,5.183],[-74.978,5.177],[-74.969,5.174],[-74.965,5.163],[-74.971,5.161],[-74.973,5.148],[-74.979,5.152],[-75,5.143],[-75.005,5.146],[-75.023,5.139],[-75.028,5.131],[-75.036,5.131],[-75.049,5.12],[-75.062,5.117],[-75.068,5.123],[-75.105,5.118],[-75.106,5.112],[-75.114,5.109],[-75.113,5.103],[-75.121,5.093],[-75.128,5.093],[-75.126,5.119],[-75.136,5.124],[-75.136,5.135],[-75.14,5.138],[-75.138,5.158],[-75.13,5.156],[-75.113,5.163],[-75.114,5.181],[-75.106,5.186],[-75.103,5.202],[-75.091,5.221],[-75.085,5.223],[-75.075,5.244],[-75.063,5.252],[-75.064,5.261],[-75.057,5.275],[-75.037,5.276],[-75.031,5.279],[-75.029,5.289],[-75,5.292]]]}},{"type":"Feature","properties":{"tipo":"municipio","dep":"29","mun":"058","nombre":"GUAMO"},"geometry":{"type":"Polygon","coordinates":[[[-75.023,4.231],[-75.007,4.236],[-75.001,4.234],[-75,4.222],[-74.975,4.174],[-74.96,4.162],[-74.933,4.119],[-74.911,4.114],[-74.903,4.104],[-74.87,4.097],[-74.859,4.089],[-74.847,4.095],[-74.828,4.09],[-74.838,4.062],[-74.835,4.041],[-74.841,4.034],[-74.857,4.031],[-74.864,4.01],[-74.876,3.994],[-74.884,3.991],[-74.895,3.994],[-74.912,3.978],[-74.922,3.978],[-74.927,3.966],[-74.924,3.958],[-74.932,3.949],[-74.951,3.949],[-74.968,3.941],[-74.977,3.949],[-74.989,3.954],[-75.005,3.98],[-75.009,3.996],[-75.028,4.005],[-75.062,3.986],[-75.067,4.005],[-75.085,4.024],[-75.08,4.039],[-75.08,4.061],[-75.071,4.066],[-75.075,4.072],[-75.067,4.071],[-75.072,4.084],[-75.055,4.102],[-75.063,4.111],[-75.067,4.107],[-75.069,4.112],[-75.079,4.111],[-75.078,4.124],[-75.075,4.124],[-75.08,4.129],[-75.077,4.141],[-75.082,4.137],[-75.051,4.206],[-75.051,4.217],[-75.041,4.235],[-75.042,4.244],[-75.036,4.263],[-75.035,4.246],[-75.028,4.232],[-75.023,4.231]]]}},{"type":"Feature","properties":{"tipo":"municipio","dep":"29","mun":"061","nombre":"HERVEO"},"geometry":{"type":"Polygon","coordinates":[[[-75.138,5.158],[-75.14,5.138],[-75.136,5.135],[-75.136,5.125],[-75.126,5.119],[-75.128,5.093],[-75.135,5.087],[-75.143,5.088],[-75.15,5.07],[-75.148,5.064],[-75.172,5.054],[-75.177,5.04],[-75.199,5.022],[-75.214,5],[-75.228,4.995],[-75.239,4.999],[-75.253,4.997],[-75.296,4.975],[-75.304,4.976],[-75.324,4.968],[-75.333,4.953],[-75.343,4.949],[-75.347,4.938],[-75.342,4.935],[-75.336,4.901],[-75.352,4.933],[-75.353,4.964],[-75.334,4.975],[-75.321,5.001],[-75.317,5.031],[-75.332,5.045],[-75.34,5.045],[-75.342,5.053],[-75.349,5.057],[-75.343,5.074],[-75.345,5.081],[-75.311,5.109],[-75.284,5.141],[-75.235,5.126],[-75.229,5.133],[-75.211,5.139],[-75.213,5.144],[-75.207,5.144],[-75.206,5.154],[-75.199,5.162],[-75.179,5.164],[-75.173,5.17],[-75.155,5.17],[-75.138,5.158]]]}},{"type":"Feature","properties":{"tipo":"municipio","dep":"29","mun":"064","nombre":"HONDA"},"geometry":{"type":"Polygon","coordinates":[[[-74.732,5.048],[-74.734,5.053],[-74.745,5.05],[-74.748,5.045],[-74.754,5.048],[-74.763,5.041],[-74.773,5.069],[-74.769,5.11],[-74.777,5.11],[-74.792,5.097],[-74.808,5.092],[-74.815,5.095],[-74.846,5.1],[-74.852,5.113],[-74.852,5.122],[-74.875,5.136],[-74.875,5.144],[-74.886,5.149],[-74.88,5.152],[-74.864,5.168],[-74.868,5.175],[-74.835,5.187],[-74.832,5.196],[-74.809,5.215],[-74.803,5.215],[-74.804,5.22],[-74.795,5.225],[-74.828,5.272],[-74.815,5.283],[-74.819,5.289],[-74.847,5.3],[-74.85,5.307],[-74.858,5.304],[-74.862,5.306],[-74.849,5.317],[-74.846,5.314],[-74.82,5.316],[-74.807,5.304],[-74.775,5.299],[-74.766,5.288],[-74.761,5.29],[-74.754,5.283],[-74.745,5.29],[-74.741,5.286],[-74.737,5.288],[-74.73,5.279],[-74.724,5.238],[-74.73,5.234],[-74.729,5.214],[-74.734,5.205],[-74.722,5.201],[-74.715,5.185],[-74.718,5.167],[-74.731,5.15],[-74.73,5.13],[-74.717,5.121],[-74.714,5.113],[-74.732,5.048]]]}},{"type":"Feature","properties":{"tipo":"municipio","dep":"29","mun":"067","nombre":"ICONONZO"},"geometry":{"type":"Polygon","coordinates":[[[-74.531,3.976],[-74.542,3.976],[-74.546,3.987],[-74.541,4.021],[-74.564,4.053],[-74.561,4.068],[-74.576,4.083],[-74.599,4.085],[-74.609,4.095],[-74.626,4.099],[-74.619,4.103],[-74.619,4.113],[-74.612,4.124],[-74.597,4.134],[-74.564,4.175],[-74.559,4.2],[-74.566,4.248],[-74.562,4.261],[-74.556,4.267],[-74.536,4.246],[-74.519,4.24],[-74.508,4.198],[-74.5,4.194],[-74.5,4.186],[-74.483,4.177],[-74.481,4.151],[-74.484,4.147],[-74.475,4.128],[-74.477,4.111],[-74.483,4.108],[-74.486,4.096],[-74.508,4.08],[-74.508,4.074],[-74.517,4.068],[-74.518,4.058],[-74.529,4.046],[-74.531,4.033],[-74.524,4.022],[-74.533,3.994],[-74.531,3.976]]]}},{"type":"Feature","properties":{"tipo":"municipio","dep":"29","mun":"070","nombre":"LERIDA"},"geometry":{"type":"Polygon","coordinates":[[[-74.928,4.964],[-74.917,4.963],[-74.907,4.953],[-74.906,4.945],[-74.887,4.916],[-74.887,4.908],[-74.88,4.902],[-74.874,4.888],[-74.868,4.887],[-74.864,4.892],[-74.838,4.889],[-74.836,4.885],[-74.833,4.89],[-74.812,4.888],[-74.813,4.87],[-74.847,4.844],[-74.825,4.838],[-74.838,4.838],[-74.857,4.822],[-74.871,4.819],[-74.873,4.793],[-74.867,4.78],[-74.876,4.771],[-74.882,4.775],[-74.881,4.772],[-74.887,4.771],[-74.887,4.778],[-74.898,4.774],[-74.905,4.778],[-74.908,4.775],[-74.926,4.791],[-74.942,4.791],[-74.946,4.782],[-74.956,4.783],[-74.964,4.794],[-74.979,4.795],[-74.984,4.792],[-74.994,4.8],[-75.001,4.799],[-75.004,4.808],[-75.016,4.815],[-75.017,4.835],[-75.006,4.835],[-74.999,4.846],[-74.988,4.847],[-74.975,4.857],[-74.966,4.869],[-74.965,4.881],[-74.968,4.896],[-74.977,4.896],[-74.978,4.9],[-74.986,4.898],[-74.994,4.914],[-75.005,4.917],[-75,4.922],[-75.003,4.931],[-74.999,4.94],[-74.986,4.949],[-74.981,4.948],[-74.98,4.953],[-74.984,4.96],[-74.97,4.967],[-74.946,4.959],[-74.928,4.964]]]}},{"type":"Feature","properties":{"tipo":"municipio","dep":"29","mun":"073","nombre":"LIBANO"},"geometry":{"type":"Polygon","coordinates":[[[-75.011,4.996],[-75.006,4.986],[-74.999,4.979],[-74.981,4.976],[-74.973,4.967],[-74.985,4.959],[-74.98,4.953],[-74.981,4.948],[-74.986,4.949],[-75,4.94],[-75.003,4.931],[-75,4.922],[-75.005,4.917],[-74.994,4.914],[-74.986,4.898],[-74.978,4.9],[-74.977,4.896],[-74.968,4.896],[-74.965,4.881],[-74.966,4.869],[-74.975,4.857],[-74.988,4.847],[-74.999,4.846],[-75.006,4.835],[-75.017,4.834],[-75.016,4.815],[-75.008,4.811],[-75.016,4.811],[-75.049,4.786],[-75.043,4.781],[-75.047,4.764],[-75.061,4.755],[-75.071,4.753],[-75.088,4.767],[-75.097,4.762],[-75.112,4.763],[-75.114,4.766],[-75.107,4.777],[-75.114,4.788],[-75.11,4.813],[-75.114,4.833],[-75.111,4.843],[-75.105,4.844],[-75.103,4.866],[-75.109,4.876],[-75.116,4.874],[-75.119,4.879],[-75.102,4.89],[-75.113,4.91],[-75.105,4.909],[-75.1,4.92],[-75.099,4.924],[-75.106,4.93],[-75.102,4.935],[-75.073,4.95],[-75.058,4.98],[-75.046,4.996],[-75.011,4.996]]]}},{"type":"Feature","properties":{"tipo":"municipio","dep":"29","mun":"076","nombre":"MARIQUITA"},"geometry":{"type":"Polygon","coordinates":[[[-74.858,5.304],[-74.85,5.307],[-74.847,5.3],[-74.82,5.29],[-74.815,5.283],[-74.828,5.272],[-74.795,5.225],[-74.804,5.22],[-74.803,5.215],[-74.809,5.215],[-74.832,5.196],[-74.835,5.187],[-74.868,5.175],[-74.864,5.168],[-74.88,5.152],[-74.902,5.141],[-74.898,5.144],[-74.899,5.156],[-74.908,5.16],[-74.917,5.15],[-74.927,5.15],[-74.935,5.157],[-74.942,5.155],[-74.949,5.16],[-74.952,5.175],[-74.966,5.17],[-74.978,5.177],[-74.973,5.183],[-74.978,5.191],[-74.971,5.204],[-74.978,5.201],[-74.983,5.22],[-74.991,5.226],[-75,5.224],[-75.009,5.237],[-75.006,5.266],[-74.996,5.279],[-75.002,5.286],[-75,5.292],[-74.986,5.289],[-74.939,5.313],[-74.914,5.31],[-74.899,5.299],[-74.89,5.301],[-74.874,5.295],[-74.869,5.305],[-74.858,5.304]]]}},{"type":"Feature","properties":{"tipo":"municipio","dep":"29","mun":"079","nombre":"MELGAR"},"geometry":{"type":"Polygon","coordinates":[[[-74.556,4.267],[-74.562,4.261],[-74.566,4.244],[-74.561,4.225],[-74.56,4.182],[-74.578,4.153],[-74.597,4.134],[-74.612,4.124],[-74.619,4.113],[-74.619,4.103],[-74.626,4.107],[-74.627,4.12],[-74.633,4.125],[-74.63,4.132],[-74.68,4.096],[-74.692,4.102],[-74.688,4.126],[-74.678,4.137],[-74.682,4.143],[-74.671,4.152],[-74.681,4.16],[-74.679,4.164],[-74.685,4.162],[-74.689,4.171],[-74.711,4.173],[-74.718,4.184],[-74.715,4.189],[-74.725,4.186],[-74.732,4.194],[-74.739,4.194],[-74.744,4.204],[-74.753,4.203],[-74.753,4.206],[-74.747,4.207],[-74.75,4.218],[-74.745,4.22],[-74.744,4.241],[-74.733,4.248],[-74.722,4.231],[-74.716,4.235],[-74.706,4.228],[-74.709,4.224],[-74.701,4.22],[-74.704,4.215],[-74.699,4.211],[-74.657,4.215],[-74.656,4.198],[-74.632,4.223],[-74.623,4.226],[-74.62,4.252],[-74.601,4.262],[-74.596,4.258],[-74.589,4.267],[-74.567,4.273],[-74.556,4.267]]]}},{"type":"Feature","properties":{"tipo":"municipio","dep":"29","mun":"080","nombre":"MURILLO"},"geometry":{"type":"Polygon","coordinates":[[[-75.165,4.917],[-75.157,4.909],[-75.136,4.909],[-75.129,4.905],[-75.126,4.896],[-75.116,4.894],[-75.109,4.898],[-75.103,4.893],[-75.119,4.879],[-75.116,4.874],[-75.109,4.876],[-75.103,4.866],[-75.105,4.844],[-75.111,4.843],[-75.114,4.833],[-75.11,4.813],[-75.114,4.788],[-75.107,4.777],[-75.114,4.765],[-75.097,4.762],[-75.088,4.767],[-75.071,4.753],[-75.073,4.749],[-75.096,4.75],[-75.113,4.733],[-75.126,4.745],[-75.134,4.744],[-75.143,4.736],[-75.151,4.741],[-75.168,4.74],[-75.18,4.755],[-75.217,4.776],[-75.239,4.771],[-75.244,4.775],[-75.265,4.765],[-75.273,4.768],[-75.282,4.759],[-75.292,4.762],[-75.317,4.754],[-75.353,4.775],[-75.374,4.803],[-75.356,4.828],[-75.352,4.842],[-75.345,4.843],[-75.324,4.864],[-75.32,4.887],[-75.251,4.892],[-75.225,4.912],[-75.215,4.911],[-75.198,4.918],[-75.188,4.913],[-75.177,4.92],[-75.165,4.917]]]}},{"type":"Feature","properties":{"tipo":"municipio","dep":"29","mun":"082","nombre":"NATAGAIMA"},"geometry":{"type":"Polygon","coordinates":[[[-75.097,3.686],[-75.091,3.68],[-75.094,3.676],[-75.093,3.666],[-75.081,3.661],[-75.074,3.673],[-75.069,3.661],[-75.06,3.662],[-75.053,3.658],[-75.042,3.663],[-75.038,3.661],[-75.038,3.676],[-75.03,3.68],[-75.024,3.688],[-75.016,3.689],[-74.997,3.683],[-74.988,3.672],[-74.99,3.663],[-74.981,3.652],[-74.967,3.65],[-74.967,3.641],[-74.955,3.63],[-74.939,3.63],[-74.935,3.617],[-74.93,3.618],[-74.931,3.611],[-74.942,3.594],[-74.941,3.581],[-74.948,3.572],[-74.96,3.571],[-74.964,3.564],[-74.973,3.562],[-74.995,3.535],[-74.994,3.516],[-75.005,3.499],[-74.993,3.493],[-74.997,3.481],[-74.992,3.475],[-75.005,3.47],[-75.006,3.458],[-75.024,3.446],[-75.034,3.427],[-75.059,3.432],[-75.152,3.432],[-75.152,3.417],[-75.176,3.408],[-75.172,3.383],[-75.175,3.375],[-75.178,3.38],[-75.2,3.384],[-75.201,3.41],[-75.212,3.408],[-75.212,3.413],[-75.222,3.412],[-75.227,3.416],[-75.241,3.405],[-75.246,3.395],[-75.245,3.382],[-75.253,3.366],[-75.26,3.372],[-75.258,3.376],[-75.272,3.386],[-75.272,3.396],[-75.278,3.403],[-75.276,3.42],[-75.284,3.425],[-75.289,3.441],[-75.297,3.44],[-75.298,3.447],[-75.303,3.449],[-75.28,3.471],[-75.278,3.477],[-75.265,3.479],[-75.266,3.488],[-75.256,3.493],[-75.257,3.51],[-75.266,3.514],[-75.269,3.524],[-75.286,3.539],[-75.289,3.547],[-75.293,3.55],[-75.289,3.552],[-75.289,3.565],[-75.284,3.572],[-75.272,3.57],[-75.265,3.577],[-75.249,3.565],[-75.246,3.581],[-75.249,3.59],[-75.24,3.592],[-75.237,3.601],[-75.225,3.596],[-75.228,3.599],[-75.223,3.603],[-75.233,3.614],[-75.225,3.622],[-75.226,3.632],[-75.206,3.634],[-75.195,3.629],[-75.194,3.62],[-75.19,3.62],[-75.167,3.639],[-75.16,3.652],[-75.163,3.657],[-75.15,3.668],[-75.142,3.668],[-75.133,3.694],[-75.115,3.694],[-75.097,3.686]]]}},{"type":"Feature","properties":{"tipo":"municipio","dep":"29","mun":"085","nombre":"ORTEGA"},"geometry":{"type":"Polygon","coordinates":[[[-75.254,4.107],[-75.233,4.107],[-75.214,4.098],[-75.204,4.106],[-75.191,4.109],[-75.201,4.087],[-75.209,4.083],[-75.212,4.069],[-75.219,4.059],[-75.214,4.05],[-75.21,4.031],[-75.18,4.002],[-75.158,3.995],[-75.14,4.007],[-75.132,3.988],[-75.095,3.971],[-75.092,3.961],[-75.073,3.937],[-75.081,3.931],[-75.086,3.919],[-75.096,3.917],[-75.103,3.909],[-75.106,3.911],[-75.119,3.887],[-75.14,3.886],[-75.149,3.88],[-75.162,3.879],[-75.163,3.862],[-75.168,3.864],[-75.185,3.855],[-75.195,3.837],[-75.192,3.819],[-75.203,3.788],[-75.217,3.768],[-75.227,3.765],[-75.234,3.777],[-75.239,3.78],[-75.249,3.774],[-75.244,3.765],[-75.261,3.762],[-75.274,3.745],[-75.271,3.762],[-75.283,3.764],[-75.302,3.754],[-75.305,3.759],[-75.311,3.757],[-75.307,3.8],[-75.304,3.807],[-75.314,3.803],[-75.324,3.813],[-75.331,3.804],[-75.339,3.806],[-75.344,3.802],[-75.344,3.807],[-75.35,3.806],[-75.35,3.814],[-75.365,3.829],[-75.388,3.842],[-75.402,3.859],[-75.445,3.87],[-75.433,3.908],[-75.439,3.919],[-75.418,3.966],[-75.42,3.972],[-75.432,3.972],[-75.421,3.992],[-75.422,4.011],[-75.408,4.027],[-75.408,4.043],[-75.392,4.047],[-75.38,4.039],[-75.365,4.044],[-75.361,4.051],[-75.346,4.059],[-75.329,4.084],[-75.304,4.106],[-75.289,4.108],[-75.284,4.118],[-75.263,4.116],[-75.254,4.107]]]}},{"type":"Feature","properties":{"tipo":"municipio","dep":"29","mun":"087","nombre":"PALOCABILDO"},"geometry":{"type":"Polygon","coordinates":[[[-74.994,5.146],[-74.994,5.135],[-74.984,5.124],[-74.988,5.087],[-74.982,5.077],[-74.99,5.068],[-74.987,5.055],[-75.004,5.06],[-75.011,5.055],[-75.025,5.055],[-75.029,5.046],[-75.047,5.055],[-75.05,5.069],[-75.057,5.069],[-75.065,5.077],[-75.055,5.095],[-75.045,5.101],[-75.047,5.107],[-75.043,5.124],[-75.036,5.131],[-75.028,5.131],[-75.023,5.139],[-75.005,5.146],[-75.002,5.143],[-74.994,5.146]]]}},{"type":"Feature","properties":{"tipo":"municipio","dep":"29","mun":"088","nombre":"PIEDRAS"},"geometry":{"type":"Polygon","coordinates":[[[-74.853,4.616],[-74.846,4.621],[-74.842,4.614],[-74.827,4.609],[-74.817,4.612],[-74.796,4.596],[-74.794,4.589],[-74.811,4.589],[-74.815,4.581],[-74.805,4.571],[-74.809,4.557],[-74.802,4.547],[-74.805,4.535],[-74.787,4.505],[-74.796,4.496],[-74.813,4.497],[-74.821,4.491],[-74.832,4.497],[-74.832,4.513],[-74.853,4.498],[-74.846,4.509],[-74.847,4.515],[-74.859,4.502],[-74.871,4.504],[-74.92,4.479],[-74.921,4.469],[-74.899,4.479],[-74.896,4.47],[-74.904,4.457],[-74.898,4.444],[-74.908,4.421],[-74.909,4.402],[-74.919,4.384],[-74.925,4.384],[-74.924,4.369],[-74.928,4.363],[-74.934,4.366],[-74.939,4.362],[-74.933,4.37],[-74.937,4.38],[-74.949,4.364],[-74.963,4.363],[-74.988,4.352],[-74.997,4.358],[-74.992,4.393],[-75.019,4.399],[-75.03,4.396],[-75.048,4.403],[-75.061,4.403],[-75.07,4.436],[-75.062,4.436],[-75.046,4.45],[-75.027,4.452],[-75.015,4.459],[-75.007,4.473],[-74.995,4.474],[-74.987,4.479],[-74.984,4.487],[-74.975,4.49],[-74.967,4.51],[-74.96,4.512],[-74.954,4.525],[-74.944,4.529],[-74.94,4.536],[-74.929,4.538],[-74.927,4.548],[-74.923,4.548],[-74.92,4.556],[-74.912,4.557],[-74.909,4.566],[-74.903,4.565],[-74.902,4.572],[-74.9,4.575],[-74.884,4.59],[-74.885,4.599],[-74.869,4.615],[-74.873,4.617],[-74.867,4.625],[-74.857,4.628],[-74.853,4.616]]]}},{"type":"Feature","properties":{"tipo":"municipio","dep":"29","mun":"089","nombre":"PLANADAS"},"geometry":{"type":"Polygon","coordinates":[[[-75.703,3.315],[-75.698,3.286],[-75.689,3.279],[-75.676,3.284],[-75.661,3.279],[-75.65,3.291],[-75.63,3.292],[-75.627,3.297],[-75.611,3.299],[-75.609,3.284],[-75.613,3.267],[-75.606,3.264],[-75.603,3.246],[-75.608,3.221],[-75.59,3.198],[-75.599,3.183],[-75.596,3.17],[-75.602,3.163],[-75.6,3.127],[-75.589,3.126],[-75.586,3.12],[-75.599,3.115],[-75.636,3.077],[-75.669,3.059],[-75.703,3.026],[-75.731,3.014],[-75.796,2.968],[-75.809,2.898],[-75.829,2.873],[-75.859,2.872],[-75.882,2.889],[-75.884,2.898],[-75.902,2.895],[-75.911,2.911],[-75.927,2.913],[-75.929,2.922],[-75.944,2.922],[-75.953,2.917],[-75.965,2.945],[-75.974,2.947],[-75.981,2.955],[-75.983,2.973],[-75.989,2.983],[-76.012,2.979],[-76.025,2.972],[-76.035,2.943],[-76.032,2.971],[-76.02,2.995],[-76.022,3.002],[-76.042,3.016],[-76.039,3.025],[-76.045,3.032],[-76.046,3.043],[-76.058,3.043],[-76.074,3.05],[-76.07,3.067],[-76.082,3.09],[-76.092,3.097],[-76.104,3.096],[-76.109,3.104],[-76.108,3.109],[-76.084,3.114],[-76.074,3.123],[-76.077,3.133],[-76.073,3.14],[-76.086,3.156],[-76.079,3.165],[-76.092,3.178],[-76.092,3.199],[-76.08,3.188],[-76.077,3.179],[-76.058,3.17],[-76.034,3.175],[-76.025,3.169],[-75.982,3.186],[-75.952,3.18],[-75.926,3.192],[-75.914,3.194],[-75.891,3.219],[-75.879,3.222],[-75.875,3.237],[-75.869,3.232],[-75.862,3.236],[-75.83,3.268],[-75.818,3.274],[-75.818,3.284],[-75.796,3.292],[-75.787,3.31],[-75.776,3.313],[-75.767,3.31],[-75.76,3.318],[-75.751,3.315],[-75.735,3.323],[-75.703,3.315]]]}},{"type":"Feature","properties":{"tipo":"municipio","dep":"29","mun":"091","nombre":"PRADO"},"geometry":{"type":"Polygon","coordinates":[[[-74.871,3.822],[-74.857,3.817],[-74.864,3.791],[-74.844,3.786],[-74.845,3.795],[-74.836,3.816],[-74.829,3.811],[-74.831,3.798],[-74.824,3.799],[-74.825,3.789],[-74.821,3.793],[-74.815,3.786],[-74.798,3.788],[-74.789,3.78],[-74.746,3.771],[-74.723,3.777],[-74.707,3.789],[-74.705,3.782],[-74.723,3.764],[-74.717,3.758],[-74.729,3.737],[-74.729,3.73],[-74.746,3.726],[-74.75,3.715],[-74.76,3.71],[-74.765,3.687],[-74.773,3.686],[-74.781,3.672],[-74.791,3.668],[-74.797,3.672],[-74.809,3.662],[-74.834,3.657],[-74.854,3.661],[-74.862,3.653],[-74.874,3.662],[-74.893,3.657],[-74.907,3.668],[-74.925,3.647],[-74.917,3.638],[-74.919,3.629],[-74.935,3.617],[-74.939,3.63],[-74.955,3.63],[-74.967,3.641],[-74.967,3.65],[-74.981,3.652],[-74.99,3.663],[-74.988,3.672],[-74.997,3.683],[-75.016,3.689],[-74.999,3.703],[-74.987,3.707],[-74.975,3.721],[-74.981,3.73],[-74.978,3.744],[-74.981,3.753],[-74.966,3.783],[-74.947,3.797],[-74.941,3.822],[-74.912,3.816],[-74.911,3.822],[-74.905,3.821],[-74.906,3.825],[-74.869,3.831],[-74.871,3.822]]]}},{"type":"Feature","properties":{"tipo":"municipio","dep":"29","mun":"094","nombre":"PURIFICACION"},"geometry":{"type":"Polygon","coordinates":[[[-74.873,3.972],[-74.874,3.959],[-74.868,3.945],[-74.874,3.927],[-74.872,3.915],[-74.821,3.893],[-74.816,3.877],[-74.809,3.882],[-74.801,3.878],[-74.798,3.871],[-74.789,3.881],[-74.791,3.885],[-74.782,3.892],[-74.777,3.905],[-74.767,3.903],[-74.771,3.895],[-74.764,3.894],[-74.756,3.88],[-74.761,3.875],[-74.752,3.855],[-74.732,3.843],[-74.707,3.801],[-74.707,3.789],[-74.717,3.779],[-74.746,3.771],[-74.789,3.78],[-74.798,3.788],[-74.815,3.786],[-74.821,3.794],[-74.825,3.789],[-74.824,3.799],[-74.831,3.798],[-74.829,3.811],[-74.836,3.816],[-74.845,3.795],[-74.844,3.786],[-74.864,3.791],[-74.857,3.817],[-74.871,3.822],[-74.869,3.831],[-74.906,3.825],[-74.905,3.821],[-74.911,3.822],[-74.912,3.816],[-74.941,3.822],[-74.947,3.797],[-74.966,3.783],[-74.982,3.751],[-75.008,3.783],[-75.011,3.794],[-75.035,3.815],[-75.033,3.82],[-75.027,3.818],[-75.023,3.822],[-75.017,3.835],[-75.011,3.833],[-75.004,3.85],[-74.995,3.857],[-75,3.868],[-74.996,3.875],[-75.003,3.884],[-74.999,3.891],[-74.977,3.897],[-74.952,3.895],[-74.933,3.917],[-74.927,3.913],[-74.917,3.927],[-74.913,3.923],[-74.908,3.931],[-74.918,3.939],[-74.911,3.948],[-74.917,3.951],[-74.917,3.957],[-74.924,3.957],[-74.927,3.964],[-74.923,3.977],[-74.912,3.978],[-74.895,3.994],[-74.878,3.992],[-74.864,4.01],[-74.861,4],[-74.873,3.972]]]}},{"type":"Feature","properties":{"tipo":"municipio","dep":"29","mun":"097","nombre":"RIOBLANCO"},"geometry":{"type":"Polygon","coordinates":[[[-75.823,3.759],[-75.822,3.718],[-75.799,3.698],[-75.79,3.679],[-75.782,3.676],[-75.769,3.686],[-75.756,3.683],[-75.745,3.645],[-75.738,3.648],[-75.725,3.642],[-75.698,3.653],[-75.687,3.648],[-75.659,3.619],[-75.652,3.624],[-75.636,3.612],[-75.632,3.594],[-75.627,3.591],[-75.626,3.576],[-75.622,3.578],[-75.615,3.571],[-75.603,3.569],[-75.596,3.573],[-75.588,3.581],[-75.59,3.569],[-75.583,3.564],[-75.585,3.55],[-75.579,3.519],[-75.585,3.501],[-75.581,3.497],[-75.583,3.47],[-75.578,3.454],[-75.6,3.452],[-75.604,3.456],[-75.631,3.46],[-75.637,3.456],[-75.653,3.466],[-75.669,3.466],[-75.675,3.462],[-75.674,3.453],[-75.686,3.444],[-75.689,3.43],[-75.697,3.422],[-75.709,3.384],[-75.718,3.376],[-75.724,3.349],[-75.734,3.337],[-75.73,3.33],[-75.751,3.315],[-75.76,3.318],[-75.766,3.31],[-75.776,3.313],[-75.787,3.31],[-75.796,3.292],[-75.818,3.284],[-75.818,3.274],[-75.83,3.268],[-75.862,3.236],[-75.869,3.232],[-75.875,3.237],[-75.879,3.222],[-75.891,3.219],[-75.915,3.194],[-75.926,3.192],[-75.952,3.18],[-75.982,3.186],[-76.025,3.169],[-76.034,3.175],[-76.058,3.17],[-76.077,3.179],[-76.08,3.188],[-76.092,3.2],[-76.085,3.204],[-76.069,3.197],[-76.061,3.203],[-76.052,3.218],[-76.058,3.232],[-76.039,3.25],[-76.041,3.259],[-76.048,3.264],[-76.051,3.282],[-76.038,3.301],[-76.044,3.319],[-76.057,3.327],[-76.053,3.336],[-76.055,3.348],[-76.062,3.35],[-76.062,3.356],[-76.048,3.365],[-76.048,3.374],[-76.032,3.383],[-76.03,3.392],[-76.043,3.395],[-76.038,3.42],[-76.042,3.438],[-76.037,3.453],[-76.029,3.454],[-76.022,3.478],[-76.026,3.491],[-76.015,3.509],[-76.004,3.517],[-76.003,3.528],[-75.984,3.56],[-75.99,3.575],[-75.984,3.587],[-75.995,3.611],[-75.989,3.615],[-75.987,3.624],[-75.994,3.638],[-75.989,3.643],[-75.977,3.643],[-75.976,3.657],[-75.959,3.664],[-75.951,3.674],[-75.961,3.694],[-75.961,3.705],[-75.956,3.713],[-75.946,3.717],[-75.945,3.728],[-75.928,3.74],[-75.922,3.738],[-75.917,3.749],[-75.913,3.741],[-75.905,3.746],[-75.894,3.742],[-75.89,3.75],[-75.881,3.753],[-75.87,3.752],[-75.859,3.767],[-75.853,3.767],[-75.85,3.776],[-75.83,3.774],[-75.823,3.759]]]}},{"type":"Feature","properties":{"tipo":"municipio","dep":"29","mun":"100","nombre":"RONCESVALLES"},"geometry":{"type":"Polygon","coordinates":[[[-75.579,4.263],[-75.577,4.232],[-75.564,4.231],[-75.543,4.207],[-75.534,4.209],[-75.53,4.204],[-75.516,4.201],[-75.505,4.185],[-75.46,4.167],[-75.454,4.157],[-75.45,4.158],[-75.432,4.137],[-75.414,4.151],[-75.399,4.139],[-75.391,4.139],[-75.4,4.117],[-75.405,4.116],[-75.407,4.121],[-75.413,4.118],[-75.42,4.121],[-75.426,4.115],[-75.432,4.117],[-75.454,4.097],[-75.458,4.077],[-75.438,4.06],[-75.443,4.056],[-75.459,4.064],[-75.466,4.048],[-75.479,4.053],[-75.473,4.02],[-75.51,4.01],[-75.523,4.013],[-75.53,4.008],[-75.538,4.009],[-75.541,3.994],[-75.552,3.982],[-75.581,3.989],[-75.595,3.974],[-75.608,3.967],[-75.618,3.969],[-75.633,3.951],[-75.632,3.933],[-75.655,3.931],[-75.65,3.938],[-75.652,3.954],[-75.668,3.964],[-75.688,3.963],[-75.696,3.973],[-75.713,3.978],[-75.736,4.014],[-75.732,4.026],[-75.746,4.044],[-75.738,4.052],[-75.752,4.069],[-75.748,4.094],[-75.732,4.104],[-75.732,4.114],[-75.721,4.112],[-75.716,4.125],[-75.697,4.132],[-75.692,4.138],[-75.689,4.156],[-75.692,4.16],[-75.688,4.168],[-75.669,4.186],[-75.665,4.198],[-75.655,4.202],[-75.653,4.212],[-75.659,4.219],[-75.639,4.232],[-75.62,4.269],[-75.598,4.279],[-75.597,4.273],[-75.579,4.263]]]}},{"type":"Feature","properties":{"tipo":"municipio","dep":"29","mun":"103","nombre":"ROVIRA"},"geometry":{"type":"Polygon","coordinates":[[[-75.308,4.342],[-75.292,4.339],[-75.291,4.345],[-75.261,4.345],[-75.252,4.351],[-75.231,4.317],[-75.235,4.313],[-75.226,4.294],[-75.195,4.297],[-75.179,4.315],[-75.148,4.321],[-75.145,4.313],[-75.17,4.299],[-75.171,4.289],[-75.191,4.262],[-75.199,4.226],[-75.21,4.231],[-75.21,4.218],[-75.223,4.204],[-75.237,4.172],[-75.238,4.152],[-75.247,4.137],[-75.242,4.118],[-75.244,4.107],[-75.254,4.107],[-75.269,4.119],[-75.284,4.118],[-75.289,4.108],[-75.304,4.106],[-75.329,4.084],[-75.346,4.059],[-75.361,4.051],[-75.365,4.044],[-75.381,4.039],[-75.392,4.045],[-75.391,4.057],[-75.408,4.056],[-75.399,4.068],[-75.387,4.116],[-75.398,4.121],[-75.391,4.139],[-75.399,4.139],[-75.414,4.151],[-75.432,4.137],[-75.45,4.158],[-75.454,4.157],[-75.457,4.165],[-75.505,4.185],[-75.516,4.201],[-75.53,4.204],[-75.534,4.209],[-75.543,4.207],[-75.567,4.233],[-75.539,4.244],[-75.528,4.255],[-75.506,4.259],[-75.389,4.302],[-75.379,4.311],[-75.357,4.306],[-75.331,4.336],[-75.328,4.345],[-75.313,4.352],[-75.308,4.342]]]}},{"type":"Feature","properties":{"tipo":"municipio","dep":"29","mun":"105","nombre":"SALDAÑA"},"geometry":{"type":"Polygon","coordinates":[[[-75.009,3.996],[-75.005,3.98],[-74.989,3.954],[-74.977,3.949],[-74.967,3.941],[-74.952,3.949],[-74.932,3.949],[-74.924,3.957],[-74.917,3.957],[-74.917,3.951],[-74.911,3.948],[-74.918,3.939],[-74.908,3.931],[-74.913,3.923],[-74.917,3.927],[-74.927,3.913],[-74.933,3.917],[-74.952,3.895],[-74.973,3.898],[-75,3.89],[-75.003,3.884],[-74.996,3.875],[-75,3.868],[-74.995,3.857],[-75.004,3.85],[-75.011,3.833],[-75.017,3.834],[-75.023,3.822],[-75.027,3.818],[-75.059,3.835],[-75.065,3.844],[-75.078,3.847],[-75.075,3.866],[-75.086,3.861],[-75.099,3.87],[-75.105,3.909],[-75.096,3.917],[-75.086,3.919],[-75.081,3.931],[-75.071,3.939],[-75.043,3.927],[-75.026,3.937],[-75.034,3.936],[-75.043,3.94],[-75.048,3.956],[-75.045,3.964],[-75.062,3.986],[-75.028,4.005],[-75.009,3.996]]]}},{"type":"Feature","properties":{"tipo":"municipio","dep":"29","mun":"106","nombre":"SAN ANTONIO"},"geometry":{"type":"Polygon","coordinates":[[[-75.405,4.116],[-75.398,4.121],[-75.387,4.116],[-75.399,4.068],[-75.408,4.056],[-75.391,4.057],[-75.392,4.047],[-75.407,4.043],[-75.41,4.022],[-75.422,4.011],[-75.421,3.992],[-75.432,3.972],[-75.419,3.972],[-75.419,3.963],[-75.439,3.919],[-75.433,3.908],[-75.45,3.845],[-75.459,3.828],[-75.464,3.829],[-75.468,3.839],[-75.473,3.839],[-75.479,3.847],[-75.485,3.843],[-75.504,3.844],[-75.507,3.84],[-75.544,3.855],[-75.549,3.861],[-75.566,3.858],[-75.58,3.877],[-75.584,3.893],[-75.602,3.897],[-75.608,3.926],[-75.632,3.933],[-75.633,3.951],[-75.618,3.969],[-75.608,3.967],[-75.595,3.974],[-75.581,3.989],[-75.552,3.982],[-75.541,3.994],[-75.538,4.009],[-75.53,4.008],[-75.523,4.013],[-75.51,4.01],[-75.473,4.02],[-75.479,4.053],[-75.466,4.048],[-75.459,4.064],[-75.443,4.056],[-75.438,4.06],[-75.458,4.077],[-75.454,4.097],[-75.432,4.117],[-75.426,4.115],[-75.42,4.121],[-75.413,4.118],[-75.406,4.12],[-75.405,4.116]]]}},{"type":"Feature","properties":{"tipo":"municipio","dep":"29","mun":"109","nombre":"SAN LUIS"},"geometry":{"type":"Polygon","coordinates":[[[-75.138,4.325],[-75.129,4.318],[-75.115,4.319],[-75.106,4.314],[-75.1,4.302],[-75.089,4.301],[-75.086,4.29],[-75.049,4.281],[-75.028,4.28],[-75.027,4.283],[-75.021,4.279],[-75.022,4.274],[-75.009,4.26],[-74.999,4.261],[-74.999,4.244],[-75.023,4.231],[-75.028,4.232],[-75.035,4.246],[-75.034,4.261],[-75.039,4.26],[-75.042,4.244],[-75.041,4.235],[-75.051,4.217],[-75.051,4.206],[-75.068,4.161],[-75.083,4.139],[-75.077,4.141],[-75.08,4.129],[-75.075,4.124],[-75.078,4.124],[-75.079,4.111],[-75.069,4.112],[-75.067,4.107],[-75.063,4.111],[-75.055,4.102],[-75.072,4.084],[-75.067,4.071],[-75.075,4.072],[-75.071,4.066],[-75.08,4.061],[-75.08,4.039],[-75.085,4.024],[-75.067,4.005],[-75.062,3.986],[-75.045,3.964],[-75.048,3.956],[-75.043,3.94],[-75.034,3.936],[-75.026,3.939],[-75.043,3.927],[-75.068,3.939],[-75.074,3.937],[-75.092,3.961],[-75.095,3.971],[-75.132,3.988],[-75.14,4.007],[-75.16,3.995],[-75.18,4.002],[-75.21,4.031],[-75.214,4.05],[-75.219,4.058],[-75.212,4.069],[-75.209,4.083],[-75.201,4.087],[-75.191,4.109],[-75.18,4.102],[-75.135,4.142],[-75.112,4.166],[-75.085,4.227],[-75.091,4.234],[-75.096,4.231],[-75.101,4.232],[-75.096,4.242],[-75.097,4.249],[-75.11,4.252],[-75.117,4.24],[-75.123,4.237],[-75.125,4.227],[-75.13,4.238],[-75.136,4.236],[-75.145,4.247],[-75.153,4.246],[-75.182,4.277],[-75.171,4.289],[-75.17,4.299],[-75.146,4.311],[-75.148,4.321],[-75.138,4.325]]]}},{"type":"Feature","properties":{"tipo":"municipio","dep":"29","mun":"112","nombre":"SANTA ISABEL"},"geometry":{"type":"Polygon","coordinates":[[[-75.016,4.801],[-75.025,4.795],[-75.029,4.785],[-75.032,4.753],[-75.046,4.744],[-75.056,4.725],[-75.064,4.718],[-75.064,4.705],[-75.051,4.696],[-75.05,4.692],[-75.073,4.684],[-75.078,4.676],[-75.077,4.668],[-75.082,4.661],[-75.089,4.656],[-75.097,4.657],[-75.101,4.663],[-75.113,4.667],[-75.12,4.668],[-75.127,4.663],[-75.138,4.666],[-75.139,4.67],[-75.151,4.674],[-75.154,4.682],[-75.159,4.68],[-75.166,4.689],[-75.165,4.694],[-75.173,4.696],[-75.186,4.711],[-75.206,4.717],[-75.224,4.715],[-75.224,4.712],[-75.241,4.712],[-75.255,4.706],[-75.265,4.714],[-75.276,4.716],[-75.286,4.71],[-75.298,4.711],[-75.323,4.702],[-75.351,4.701],[-75.362,4.708],[-75.372,4.705],[-75.384,4.708],[-75.388,4.716],[-75.378,4.73],[-75.389,4.747],[-75.38,4.761],[-75.374,4.803],[-75.353,4.775],[-75.317,4.754],[-75.292,4.762],[-75.282,4.759],[-75.273,4.768],[-75.265,4.765],[-75.244,4.775],[-75.239,4.771],[-75.217,4.776],[-75.18,4.755],[-75.168,4.74],[-75.151,4.741],[-75.143,4.736],[-75.134,4.744],[-75.126,4.745],[-75.113,4.733],[-75.096,4.75],[-75.073,4.749],[-75.061,4.755],[-75.047,4.764],[-75.043,4.781],[-75.049,4.786],[-75.012,4.811],[-75.016,4.801]]]}},{"type":"Feature","properties":{"tipo":"municipio","dep":"29","mun":"115","nombre":"SUAREZ"},"geometry":{"type":"Polygon","coordinates":[[[-74.745,4.248],[-74.756,4.242],[-74.768,4.227],[-74.79,4.175],[-74.785,4.137],[-74.796,4.1],[-74.793,4.095],[-74.798,4.091],[-74.794,4.075],[-74.798,4.027],[-74.791,4.018],[-74.778,4.012],[-74.795,3.986],[-74.805,3.978],[-74.808,3.965],[-74.803,3.956],[-74.806,3.954],[-74.808,3.935],[-74.826,3.895],[-74.846,3.908],[-74.859,3.909],[-74.873,3.917],[-74.868,3.945],[-74.874,3.959],[-74.873,3.972],[-74.861,4],[-74.864,4.009],[-74.861,4.022],[-74.854,4.033],[-74.841,4.034],[-74.835,4.041],[-74.838,4.062],[-74.823,4.101],[-74.811,4.109],[-74.814,4.13],[-74.805,4.156],[-74.819,4.186],[-74.803,4.198],[-74.801,4.216],[-74.797,4.221],[-74.794,4.249],[-74.787,4.255],[-74.781,4.266],[-74.768,4.264],[-74.771,4.26],[-74.766,4.26],[-74.767,4.251],[-74.751,4.26],[-74.745,4.248]]]}},{"type":"Feature","properties":{"tipo":"municipio","dep":"29","mun":"118","nombre":"VALLE DE SAN JUAN"},"geometry":{"type":"Polygon","coordinates":[[[-75.153,4.246],[-75.145,4.247],[-75.136,4.236],[-75.13,4.238],[-75.124,4.227],[-75.123,4.237],[-75.117,4.24],[-75.111,4.252],[-75.097,4.249],[-75.096,4.242],[-75.102,4.233],[-75.096,4.231],[-75.091,4.234],[-75.085,4.227],[-75.108,4.171],[-75.135,4.142],[-75.18,4.102],[-75.189,4.109],[-75.204,4.106],[-75.213,4.098],[-75.226,4.105],[-75.244,4.107],[-75.242,4.118],[-75.247,4.137],[-75.238,4.152],[-75.237,4.172],[-75.223,4.204],[-75.21,4.218],[-75.21,4.231],[-75.199,4.226],[-75.192,4.26],[-75.182,4.277],[-75.153,4.246]]]}},{"type":"Feature","properties":{"tipo":"municipio","dep":"29","mun":"121","nombre":"VENADILLO"},"geometry":{"type":"Polygon","coordinates":[[[-75.001,4.799],[-74.994,4.8],[-74.985,4.792],[-74.979,4.795],[-74.964,4.794],[-74.956,4.783],[-74.946,4.782],[-74.942,4.791],[-74.926,4.791],[-74.907,4.774],[-74.905,4.778],[-74.898,4.774],[-74.887,4.778],[-74.886,4.771],[-74.881,4.772],[-74.882,4.775],[-74.878,4.771],[-74.875,4.775],[-74.866,4.774],[-74.872,4.766],[-74.874,4.75],[-74.87,4.744],[-74.864,4.745],[-74.888,4.735],[-74.874,4.713],[-74.865,4.713],[-74.847,4.725],[-74.836,4.728],[-74.832,4.722],[-74.833,4.729],[-74.837,4.732],[-74.832,4.736],[-74.83,4.728],[-74.821,4.721],[-74.805,4.702],[-74.802,4.691],[-74.808,4.672],[-74.786,4.654],[-74.787,4.647],[-74.799,4.639],[-74.802,4.627],[-74.817,4.612],[-74.827,4.609],[-74.842,4.614],[-74.846,4.621],[-74.853,4.616],[-74.855,4.628],[-74.864,4.624],[-74.869,4.628],[-74.889,4.63],[-74.893,4.637],[-74.903,4.639],[-74.909,4.634],[-74.929,4.642],[-74.929,4.649],[-74.935,4.65],[-74.943,4.661],[-74.944,4.671],[-74.955,4.674],[-74.958,4.693],[-74.972,4.703],[-74.982,4.703],[-74.989,4.695],[-74.992,4.699],[-75.006,4.694],[-75.012,4.695],[-75.018,4.689],[-75.023,4.695],[-75.022,4.699],[-75.029,4.7],[-75.033,4.696],[-75.035,4.703],[-75.038,4.696],[-75.045,4.7],[-75.051,4.696],[-75.063,4.704],[-75.064,4.719],[-75.056,4.725],[-75.046,4.744],[-75.032,4.753],[-75.029,4.785],[-75.025,4.795],[-75.016,4.801],[-75.012,4.81],[-75.005,4.809],[-75.001,4.799]]]}},{"type":"Feature","properties":{"tipo":"municipio","dep":"29","mun":"124","nombre":"VILLAHERMOSA"},"geometry":{"type":"Polygon","coordinates":[[[-75.095,5.044],[-75.092,5.034],[-75.07,5.037],[-75.064,5.029],[-75.05,5.028],[-75.043,5.016],[-75.013,5.014],[-75.009,5.009],[-75.019,4.996],[-75.028,4.999],[-75.046,4.996],[-75.058,4.98],[-75.074,4.948],[-75.102,4.935],[-75.106,4.928],[-75.099,4.923],[-75.104,4.91],[-75.113,4.91],[-75.108,4.901],[-75.116,4.894],[-75.126,4.896],[-75.131,4.907],[-75.157,4.909],[-75.165,4.917],[-75.177,4.92],[-75.188,4.913],[-75.198,4.918],[-75.215,4.911],[-75.225,4.912],[-75.251,4.892],[-75.32,4.887],[-75.315,4.905],[-75.3,4.913],[-75.3,4.92],[-75.281,4.934],[-75.275,4.934],[-75.265,4.948],[-75.257,4.951],[-75.243,4.973],[-75.221,4.973],[-75.213,4.982],[-75.205,4.982],[-75.187,4.995],[-75.167,4.998],[-75.162,5.012],[-75.149,5.016],[-75.143,5.031],[-75.147,5.041],[-75.143,5.041],[-75.142,5.051],[-75.135,5.054],[-75.122,5.053],[-75.119,5.064],[-75.113,5.068],[-75.092,5.048],[-75.095,5.044]]]}},{"type":"Feature","properties":{"tipo":"municipio","dep":"29","mun":"127","nombre":"VILLARRICA"},"geometry":{"type":"Polygon","coordinates":[[[-74.531,3.976],[-74.527,3.962],[-74.512,3.951],[-74.514,3.925],[-74.523,3.916],[-74.525,3.885],[-74.538,3.854],[-74.541,3.833],[-74.557,3.83],[-74.568,3.82],[-74.59,3.775],[-74.626,3.731],[-74.669,3.698],[-74.692,3.7],[-74.699,3.707],[-74.699,3.719],[-74.704,3.727],[-74.71,3.752],[-74.7,3.775],[-74.717,3.759],[-74.723,3.764],[-74.705,3.782],[-74.707,3.801],[-74.691,3.811],[-74.697,3.821],[-74.693,3.843],[-74.7,3.85],[-74.696,3.86],[-74.702,3.874],[-74.683,3.88],[-74.681,3.885],[-74.671,3.888],[-74.668,3.901],[-74.662,3.9],[-74.659,3.917],[-74.654,3.919],[-74.662,3.945],[-74.669,3.95],[-74.643,3.968],[-74.64,3.983],[-74.635,3.977],[-74.63,3.978],[-74.612,3.996],[-74.592,3.982],[-74.538,3.972],[-74.531,3.976]]]}}]}